id,name,country,address,website,lat,lng,isSME
1,Marks Inc,Philippines,4564 Garrison Center,https://unicef.org/auctor/gravida/sem.xml,16.0464514,120.3542849,0
2,Wunsch LLC,Armenia,25 Texas Circle,https://microsoft.com/lorem/ipsum/dolor.js,40.4670674,44.7899209,0
3,Abbott LLC,Democratic Republic of the Congo,01 Columbus Drive,http://discovery.com/condimentum/id/luctus.png,-6.1306709,23.5966577,1
4,"Rolfson, Barton and Smitham",Portugal,46294 Northfield Drive,http://telegraph.co.uk/curabitur/in/libero/ut.xml,39.4381452,-8.5116903,1
5,Huel Group,Brazil,01 Sheridan Drive,https://artisteer.com/suspendisse/potenti/in.png,-19.4878116,-46.5450499,0
6,"Gutkowski, White and Wisozk",Russia,05320 Larry Drive,https://whitehouse.gov/quis/orci/nullam.aspx,55.6117934,38.8503123,1
7,"Homenick, Keeling and Schuppe",Netherlands,5413 Birchwood Hill,http://hugedomains.com/metus/sapien.xml,51.9701203,5.9409472,0
8,Smitham-Upton,Peru,70 Hoard Point,http://cnbc.com/quisque/arcu/libero/rutrum/ac.html,-6.6712034,-78.7383574,-1
9,Leannon Inc,Ukraine,001 Nova Junction,http://surveymonkey.com/sodales/scelerisque/mauris/sit/amet/eros.jpg,48.4474111,25.0435007,1
10,O'Conner Inc,Sweden,099 Independence Road,http://infoseek.co.jp/suscipit/a.png,59.406891,18.0157421,-1
11,Langworth and Sons,Ecuador,40902 South Avenue,https://google.nl/in/blandit/ultrices.jsp,-2.2306406,-80.9001863,1
12,Reilly-Wintheiser,Croatia,0874 Sunbrook Plaza,https://jigsy.com/ut/nunc/vestibulum/ante.xml,45.1216628,19.0173647,0
13,Lindgren and Sons,Indonesia,23257 Judy Place,https://accuweather.com/sagittis/sapien/cum.html,-7.633333,108.366667,1
14,"Stroman, Ankunding and Renner",Indonesia,46 Main Avenue,https://quantcast.com/ullamcorper/augue.png,-6.4086821,106.7241166,0
15,Medhurst Group,China,958 Prentice Way,https://cyberchimps.com/consectetuer/adipiscing/elit/proin/interdum/mauris/non.jpg,30.3645144,113.4276436,1
16,Schneider-Gleichner,Japan,40157 Bayside Plaza,https://businesswire.com/nulla/tellus/in/sagittis.xml,38.1245942,139.7374194,1
17,"McDermott, Schiller and Stoltenberg",South Africa,272 Moose Junction,https://webeden.co.uk/pede.html,-33.0320432,27.8863851,1
18,"Swift, Barrows and Anderson",France,365 Carberry Way,http://opensource.org/iaculis/congue/vivamus/metus/arcu.jsp,43.6164958,3.8308136,-1
19,"Hintz, Cronin and Windler",Greece,34403 Porter Park,https://jugem.jp/accumsan/felis/ut.jsp,41.2699615,26.38509,0
20,Pagac and Sons,Brazil,59 Nova Way,http://elegantthemes.com/at/diam/nam/tristique/tortor/eu.html,-26.7416528,-52.5852334,-1
21,Dicki Group,Indonesia,91 Tony Pass,https://princeton.edu/lacus/purus.jpg,-7.7607338,112.1698476,1
22,"Gulgowski, Mante and Feil",Argentina,3344 Swallow Pass,http://vk.com/at/ipsum/ac/tellus.html,-27.4047174,-55.9300245,1
23,Murazik-Robel,China,02269 Grasskamp Terrace,http://wikimedia.org/semper/est/quam/pharetra/magna.xml,23.124134,115.138892,0
24,Johnston-Green,Canada,3 Alpine Lane,https://jigsy.com/pede/morbi/porttitor/lorem/id.jsp,46.81685,-64.06542,1
25,Schmeler and Sons,Armenia,87244 Golf Circle,http://gizmodo.com/aliquam/convallis/nunc/proin/at/turpis/a.jpg,40.9158143,45.0782615,-1
26,Glover Group,United States,3620 6th Avenue,http://baidu.com/duis/bibendum/felis/sed.jsp,40.0115285,-119.6962677,-1
27,"Cummerata, Conn and Metz",Burkina Faso,19 Cottonwood Terrace,https://360.cn/ut/nulla/sed.xml,11.1652432,-1.1400998,0
28,Ratke LLC,China,1 Bartelt Center,http://nps.gov/elementum/nullam/varius.js,30.167585,120.234391,1
29,"Swaniawski, Pfeffer and Kertzmann",Indonesia,40 Porter Terrace,http://symantec.com/turpis/integer/aliquet/massa.xml,-9.5961614,119.5752764,-1
30,Stroman Inc,Australia,38 Graceland Junction,https://cnn.com/dapibus/augue/vel/accumsan.js,-34.8352742,138.596204,1
31,Bartoletti-Hilpert,Philippines,89758 Butternut Park,https://arizona.edu/volutpat/dui/maecenas/tristique/est.jpg,14.7008738,120.9869405,-1
32,"Nienow, Goldner and Lueilwitz",China,55 Westridge Court,http://examiner.com/cubilia/curae/nulla/dapibus.jsp,30.63963,114.385538,1
33,"Halvorson, Lowe and Schumm",Indonesia,2116 Maple Wood Crossing,https://tumblr.com/ultrices/posuere/cubilia/curae/nulla.jsp,-8.091221,111.9641728,-1
34,Kozey-Witting,Malaysia,5 Grim Point,https://drupal.org/enim/sit/amet/nunc.html,3.0100681,101.5326734,-1
35,Anderson-Zieme,South Africa,72237 Nelson Parkway,https://ocn.ne.jp/est/quam.html,-33.4692269,18.7322135,-1
36,Shanahan-Schultz,China,636 Dunning Road,http://ameblo.jp/enim.aspx,22.191899,109.590771,-1
37,Hansen-Bins,Indonesia,93 Onsgard Street,https://sina.com.cn/at/turpis.aspx,-7.5450262,111.6556388,1
38,Boehm LLC,French Polynesia,9 Aberg Trail,https://nationalgeographic.com/amet/eleifend/pede/libero.jpg,-17.6809984,-149.3081197,0
39,Nikolaus-Schoen,Ukraine,89 Carey Hill,https://nsw.gov.au/curae/donec/pharetra/magna/vestibulum/aliquet/ultrices.js,50.9532135,28.6457544,0
40,Windler-Beahan,France,45471 Eastwood Point,https://cnn.com/rhoncus/aliquet/pulvinar/sed/nisl.html,45.2544588,5.7043997,-1
41,Pacocha-Sawayn,Indonesia,6 Dunning Trail,https://indiatimes.com/id/ornare/imperdiet/sapien.aspx,-9.4542,119.2271,-1
42,Mann-Cassin,China,6 Sachtjen Way,http://123-reg.co.uk/in/felis/donec/semper/sapien.aspx,30.385605,116.96943,-1
43,Welch-Ankunding,Philippines,84488 Forest Dale Circle,http://princeton.edu/vel/pede/morbi.json,14.5508865,121.0075554,1
44,"Watsica, Bogan and Rogahn",Ukraine,3219 Daystar Junction,http://indiegogo.com/sit/amet/nunc/viverra/dapibus/nulla.jsp,48.8144251,25.5987643,-1
45,Okuneva Inc,Indonesia,4626 Sloan Road,https://ucoz.ru/morbi/porttitor.js,-8.12938,112.320999,-1
46,Parker LLC,Portugal,9 Hoard Pass,http://nasa.gov/enim/blandit/mi/in/porttitor.json,37.0939437,-8.2461254,1
47,Reynolds Inc,Brazil,2 Lawn Avenue,https://friendfeed.com/ligula/nec/sem/duis/aliquam.json,-29.7844393,-55.7980283,1
48,Koelpin-Jerde,Armenia,66 Union Terrace,https://netlog.com/dolor/sit/amet/consectetuer/adipiscing.json,40.4530275,44.5222246,-1
49,"Lehner, Hartmann and Reynolds",Russia,45 Village Green Lane,http://dmoz.org/amet/lobortis/sapien/sapien.jsp,55.792891,37.671626,1
50,Torphy Group,Portugal,940 Stone Corner Crossing,https://over-blog.com/dui/maecenas/tristique/est.xml,38.5633826,-8.8830265,-1
51,Donnelly-Okuneva,Cuba,53 Bunker Hill Point,https://mozilla.org/vestibulum/quam/sapien/varius/ut/blandit/non.jsp,22.332599,-80.2711588,1
52,O'Conner-Blanda,Czech Republic,35 Oak Valley Pass,http://globo.com/justo/in/blandit/ultrices.jpg,50.4216642,14.3468802,1
53,Murazik-Braun,Argentina,9759 Norway Maple Court,http://netvibes.com/quam/turpis.json,-34.7097222,-58.3240611,0
54,"Kertzmann, Crooks and Cartwright",China,1 Artisan Center,http://businessinsider.com/curae/nulla/dapibus/dolor/vel/est.js,30.3645144,113.4276436,1
55,"Jenkins, Nienow and Emmerich",Malaysia,1826 Thompson Park,https://freewebs.com/cubilia/curae/duis/faucibus/accumsan/odio/curabitur.html,3.1523104,101.7178316,0
56,Weimann-Gibson,Finland,746 Farragut Parkway,http://goo.ne.jp/in/faucibus/orci/luctus/et/ultrices/posuere.js,63.0709556,21.6602532,1
57,Botsford-Ankunding,Tajikistan,45 Kinsman Hill,http://wikimedia.org/habitasse/platea/dictumst/maecenas.jpg,38.560256,69.0165511,-1
58,Boyle-Legros,Indonesia,47 Starling Park,https://mysql.com/volutpat.xml,-7.8003628,110.0181673,1
59,"Marks, Considine and Douglas",Ireland,146 Grim Lane,http://github.io/mattis/nibh/ligula/nec/sem.json,54.632283,-8.5946591,1
60,"Dibbert, Parisian and Wyman",Thailand,60458 Morning Lane,http://un.org/nibh/fusce/lacus/purus/aliquet/at.jpg,18.2505167,103.4910621,0
61,Towne Inc,China,21844 Spenser Avenue,https://hexun.com/integer.html,31.112818,121.381716,-1
62,Bergstrom Inc,Thailand,76371 Duke Junction,https://joomla.org/tempor/turpis/nec/euismod/scelerisque.xml,13.0553578,99.8348146,0
63,"Ledner, Corkery and Jakubowski",Czech Republic,4689 Pearson Trail,https://quantcast.com/porttitor/lacus.jsp,49.2215531,16.2941515,1
64,Tromp-Hamill,Egypt,5 Sachtjen Avenue,https://amazon.de/vitae/nisl.html,30.7532224,31.442761,0
65,Gislason and Sons,China,22975 Sheridan Way,https://hugedomains.com/sem/duis/aliquam.json,34.151624,109.323479,0
66,"Koepp, Hoppe and Zemlak",Philippines,05 7th Way,https://slideshare.net/est/lacinia/nisi/venenatis.xml,9.9821841,122.7382909,1
67,"Johnston, Lindgren and Denesik",Poland,3844 Lakewood Terrace,http://mayoclinic.com/interdum/mauris.js,49.7826756,22.7781773,1
68,Harber-Rosenbaum,Russia,8 Raven Circle,http://va.gov/nulla/dapibus/dolor/vel/est.png,55.6967262,39.2331589,1
69,"Aufderhar, D'Amore and Von",Brazil,6311 Monica Terrace,http://indiatimes.com/diam/neque/vestibulum/eget/vulputate.jpg,-20.9400441,-48.4812248,0
70,"O'Kon, Douglas and Hartmann",Egypt,8099 Bartillon Avenue,https://webeden.co.uk/imperdiet/nullam/orci/pede/venenatis.xml,31.0424566,30.4727503,1
71,Nolan-Hirthe,Brazil,4 Monterey Road,https://spotify.com/nullam/sit.xml,-24.7592533,-51.7601166,-1
72,"Ankunding, Towne and Wolf",Brazil,4851 Darwin Place,http://ihg.com/ut/rhoncus/aliquet.png,-28.2674857,-52.4626809,1
73,Prosacco and Sons,Spain,3 Sauthoff Alley,http://linkedin.com/in/sagittis/dui/vel.png,41.6543565,0.6251541,-1
74,Wisoky-Breitenberg,China,55 Bellgrove Hill,https://weather.com/nibh/in/hac/habitasse/platea.html,31.105555,111.214922,-1
75,Wisoky LLC,Portugal,733 Pearson Court,http://paypal.com/sed/interdum/venenatis/turpis/enim/blandit.html,40.5470957,-8.7012507,1
76,"Mertz, Bode and Balistreri",Mexico,340 Shelley Way,http://admin.ch/nulla/eget/eros/elementum.jsp,18.1226843,-94.1558553,1
77,Kuphal-Hermiston,South Africa,7 Scott Court,https://alibaba.com/tellus/in/sagittis/dui.png,-25.0305317,26.7540648,-1
78,Kuhic-Cronin,Indonesia,93 Coolidge Trail,http://fotki.com/nisl/nunc/nisl/duis/bibendum.jsp,-6.988321,112.8384257,-1
79,Kunze-Bruen,Brazil,9 Mifflin Park,http://pbs.org/orci/luctus/et.xml,-11.8073632,-39.3809152,0
80,Bashirian LLC,Guyana,7738 Pine View Court,http://mlb.com/nec/dui/luctus/rutrum/nulla/tellus/in.js,6.2792612,-57.5391225,-1
81,Klein-Predovic,Portugal,57386 Sage Pass,http://wix.com/id/luctus.aspx,41.3432066,-8.5660453,1
82,Schamberger LLC,Belarus,9314 Summit Place,http://ycombinator.com/leo/rhoncus.aspx,53.7815116,27.4312339,-1
83,Hauck and Sons,China,3269 Raven Street,https://tuttocitta.it/purus/phasellus/in/felis/donec.aspx,47.111918,87.486703,-1
84,Pollich and Sons,Russia,1 Vahlen Way,http://amazon.co.jp/in/libero.png,55.1220513,37.9590427,0
85,Howell Group,Greece,1 Canary Court,https://theglobeandmail.com/aliquet/massa/id/lobortis/convallis/tortor.jpg,40.4999888,22.8766281,0
86,Smith-Kozey,Portugal,52304 Oakridge Alley,http://yellowpages.com/at/nulla/suspendisse.js,38.6849828,-9.3469171,0
87,Mills-Marvin,Argentina,8140 Thompson Terrace,http://bbb.org/ipsum.html,-26.8191146,-55.0182151,1
88,Lebsack and Sons,Israel,213 Northfield Way,http://cafepress.com/eget/vulputate/ut/ultrices/vel/augue.aspx,32.235466,34.950506,-1
89,Davis-Lebsack,China,571 Oak Valley Parkway,https://fda.gov/leo/rhoncus.jsp,29.507848,106.513904,-1
90,Borer LLC,Japan,40 Sutherland Circle,http://imgur.com/sed.html,38.828834,139.9059015,1
91,"Bogan, Satterfield and Huel",Indonesia,77 Lakeland Terrace,http://opera.com/lacus.aspx,-7.7308816,109.9081382,1
92,Fisher-Gusikowski,Peru,41291 Holy Cross Terrace,https://umich.edu/consectetuer/adipiscing/elit/proin.js,-13.5426013,-72.6967861,-1
93,Huel-Gerlach,France,55403 Eggendart Point,http://liveinternet.ru/sit/amet.html,48.5851876,7.7342943,1
94,Hodkiewicz-Ullrich,Reunion,5871 Columbus Point,https://upenn.edu/semper/interdum.html,-20.94333,55.327338,-1
95,"O'Kon, Wisoky and Schuppe",Brazil,3847 Village Green Point,https://indiatimes.com/et/eros/vestibulum.jsp,-29.6880479,-51.1333376,0
96,Armstrong Inc,Peru,71102 Amoth Court,http://slideshare.net/odio/elementum/eu/interdum/eu/tincidunt.jsp,-8.1448805,-79.0517936,1
97,Champlin-Hagenes,Indonesia,22 Jenna Drive,https://i2i.jp/morbi/non/lectus/aliquam/sit/amet/diam.html,1.0725136,121.499885,-1
98,Fadel Group,South Africa,4394 7th Alley,http://ifeng.com/sapien/varius/ut/blandit/non/interdum.jpg,-32.9549324,27.9319131,-1
99,Lueilwitz LLC,Bolivia,809 Sheridan Place,http://unicef.org/eros/viverra/eget/congue/eget.aspx,-17.5706623,-65.7698663,0
100,Spinka-Yost,Russia,06804 Commercial Junction,https://merriam-webster.com/felis/ut/at/dolor/quis.json,62.5898079,50.8599404,1
101,Armstrong LLC,China,4318 Vermont Park,http://icio.us/in/ante.jsp,34.000317,115.319842,0
102,"Ortiz, Rohan and Hammes",Peru,90 Sutteridge Street,https://springer.com/turpis/donec/posuere/metus/vitae/ipsum/aliquam.js,-13.1638737,-74.2235641,1
103,Schowalter Group,Mauritius,9 Russell Way,http://bloomberg.com/donec/ut/dolor/morbi.jpg,-20.0391408,57.6495717,-1
104,"Wolf, Cormier and Roob",France,38814 Bunker Hill Park,http://jigsy.com/pede/ullamcorper/augue/a/suscipit.html,43.7441795,2.511999,-1
105,Okuneva-Towne,China,0564 Bluejay Terrace,https://hp.com/donec/pharetra/magna/vestibulum.png,36.645169,117.364633,1
106,"Douglas, Ondricka and Schultz",Armenia,62 International Place,http://hp.com/sapien/arcu.json,40.0383706,44.5657164,-1
107,"Zulauf, Feil and Wintheiser",Indonesia,09464 Eliot Plaza,https://howstuffworks.com/non/quam/nec/dui/luctus/rutrum/nulla.png,-6.9210752,109.1746261,0
108,Huel and Sons,Vietnam,8 Chinook Hill,http://cnbc.com/dis/parturient.html,11.4702151,108.9145675,1
109,Legros LLC,Brazil,67 Bluestem Parkway,http://deliciousdays.com/vel/dapibus/at/diam/nam.jpg,-28.292455,-49.9375873,0
110,Wehner LLC,China,60 Debs Hill,http://dailymail.co.uk/donec/odio/justo/sollicitudin/ut.jsp,34.5594987,112.4678779,0
111,Fritsch-Gibson,Burundi,7 Steensland Drive,http://hhs.gov/tincidunt/eu/felis/fusce.aspx,-2.9218531,29.6252858,1
112,Romaguera Group,Ukraine,73915 Katie Circle,https://baidu.com/ligula/pellentesque/ultrices/phasellus/id/sapien.json,49.8189015,24.3031209,0
113,"Conn, Homenick and Raynor",Yemen,0190 Hayes Plaza,https://google.com/tortor/sollicitudin/mi/sit/amet/lobortis.json,16.18271,44.62613,0
114,"Cruickshank, Funk and Trantow",China,011 Fuller Lane,http://yahoo.com/suspendisse/ornare/consequat/lectus/in/est.json,30.427416,113.367059,-1
115,Thiel-Rice,Ukraine,506 Schlimgen Court,https://amazon.com/suspendisse/potenti/nullam/porttitor/lacus/at/turpis.html,50.2836918,24.6345078,1
116,Parker Group,Philippines,00 Calypso Avenue,https://elegantthemes.com/massa/donec/dapibus/duis/at.aspx,10.2593261,123.7567626,0
117,Herzog and Sons,Nigeria,85 Springs Alley,http://psu.edu/ligula/sit.html,11.2927933,11.3119092,0
118,"Strosin, Gibson and Wiza",Argentina,378 Upham Avenue,https://feedburner.com/sapien/cum/sociis/natoque/penatibus/et.html,-34.3048508,-58.7739249,0
119,Reichert-Romaguera,Brazil,22 Columbus Center,https://irs.gov/donec/ut/mauris/eget.png,-22.3880391,-44.9669685,0
120,"Welch, Rath and Labadie",Indonesia,47082 Stang Junction,http://cbsnews.com/blandit/non/interdum/in.xml,-8.2666267,115.054678,0
121,Lesch and Sons,Falkland Islands,60 Mallory Avenue,http://va.gov/proin/interdum/mauris/non/ligula.html,-51.6977129,-57.8516627,0
122,Hand and Sons,China,83586 Maple Wood Alley,https://51.la/morbi/vel/lectus/in/quam/fringilla/rhoncus.jsp,38.0324108,114.6843819,0
123,Tillman-Bartoletti,Finland,0 Butternut Crossing,https://wordpress.org/est/risus/auctor/sed/tristique/in/tempus.html,62.7303265,22.5785612,-1
124,Osinski LLC,China,6 South Parkway,http://ibm.com/nec/nisi/vulputate/nonummy/maecenas.json,19.804587,109.355828,-1
125,Bergstrom and Sons,Malaysia,274 Lotheville Road,https://nps.gov/sed/augue.aspx,5.9840985,116.0761121,1
126,"Langworth, Fay and Brekke",Russia,6756 Waywood Circle,https://usa.gov/mauris/enim/leo/rhoncus/sed/vestibulum/sit.html,43.8427177,43.6387314,0
127,"Metz, Langworth and Morissette",China,7548 Rusk Terrace,https://chicagotribune.com/duis/aliquam/convallis.jpg,42.284605,125.744735,0
128,"Zulauf, Schiller and Wisozk",Ethiopia,4284 Butternut Hill,http://typepad.com/sit/amet.js,7.1402468,40.7107871,0
129,Cummerata-Conn,China,379 Nobel Lane,http://angelfire.com/ridiculus/mus/vivamus/vestibulum/sagittis.json,39.979686,116.481068,0
130,Konopelski Group,Israel,81 Coolidge Way,http://apache.org/eu.json,32.795859,35.530973,0
131,Monahan Inc,Canada,697 Mcguire Circle,https://seesaa.net/habitasse/platea/dictumst/morbi/vestibulum/velit.html,49.35499,-97.36567,-1
132,"Corwin, Schinner and Kunde",Azerbaijan,45 Veith Circle,http://tinypic.com/consequat/ut/nulla/sed/accumsan/felis.json,40.8930443,45.901513,-1
133,"McCullough, Rutherford and Armstrong",Peru,93 Warrior Trail,https://springer.com/nisi/volutpat.png,-14.35266,-70.094963,0
134,Berge-Muller,Philippines,0 Carey Place,http://purevolume.com/vivamus/tortor/duis/mattis/egestas/metus/aenean.js,14.838448,120.3466175,-1
135,Zboncak Inc,Serbia,2 Rieder Circle,http://cisco.com/ultrices/phasellus/id.html,42.5450345,21.9002712,1
136,Rolfson-Zulauf,Philippines,5485 Bobwhite Trail,https://cafepress.com/luctus/et/ultrices/posuere/cubilia/curae/donec.jsp,13.709978,123.2439154,1
137,"Murazik, Wiza and Walsh",Vietnam,60081 Northwestern Junction,https://techcrunch.com/nam/nulla/integer/pede/justo/lacinia.json,22.4919891,106.5760857,-1
138,"Schuster, Kihn and Ankunding",China,6 Pankratz Lane,https://ca.gov/dis/parturient/montes.jpg,27.1840722,114.9749001,1
139,Collier and Sons,Poland,74888 Arrowood Park,https://ft.com/at/dolor/quis/odio.aspx,53.0815746,15.4900234,1
140,Daugherty Group,Peru,9844 Park Meadow Parkway,http://nymag.com/elit/proin/risus/praesent/lectus/vestibulum.jpg,-13.54918,-71.893158,-1
141,Mertz and Sons,Jordan,30 Bartelt Alley,https://yale.edu/aliquam/lacus/morbi/quis/tortor.png,31.9018747,35.8970453,1
142,Braun Inc,Portugal,7 Parkside Drive,https://loc.gov/faucibus/accumsan.jpg,38.2887838,-8.0376603,0
143,Lubowitz and Sons,Colombia,17140 Crowley Terrace,https://barnesandnoble.com/pharetra/magna/ac.jpg,3.1377116,-76.5929658,0
144,"O'Reilly, Bogan and Hessel",Kuwait,4 Butternut Way,http://google.com/cras/in.jsp,29.2964866,48.079379,1
145,"Walter, White and Leffler",China,545 Maryland Street,https://cyberchimps.com/morbi/odio.jsp,41.985186,122.836723,-1
146,Lubowitz Group,France,6935 Loftsgordon Junction,http://1und1.de/ac/nibh/fusce/lacus/purus/aliquet.html,43.8006906,5.8147664,1
147,Mohr LLC,Malaysia,82 Debra Court,https://digg.com/tortor.xml,3.102823,101.6781755,0
148,Hirthe LLC,Dominican Republic,395 Cascade Junction,https://dailymotion.com/volutpat/quam/pede/lobortis.xml,19.5403533,-71.0790048,1
149,"Runolfsson, Rippin and Mitchell",Brazil,7413 Westerfield Point,http://fotki.com/convallis/eget/eleifend.png,-3.8398302,-62.0610928,1
150,"Hackett, Becker and Wolff",Indonesia,36490 Artisan Court,https://angelfire.com/nulla/elit/ac.aspx,-9.659525,119.0750837,0
151,Smith-Tromp,Japan,24678 Luster Avenue,https://si.edu/ut/erat/curabitur/gravida.xml,34.82828,135.6292708,-1
152,Renner and Sons,China,375 Becker Street,http://noaa.gov/penatibus/et/magnis/dis/parturient.js,34.756916,114.441285,-1
153,Will LLC,Japan,0 Maywood Junction,https://gravatar.com/nisl/aenean/lectus/pellentesque/eget/nunc/donec.html,34.7757093,134.7206721,1
154,Abbott Inc,Philippines,044 Homewood Avenue,https://dailymail.co.uk/lectus.png,16.416095,120.596202,-1
155,"Runolfsson, Gusikowski and Cole",Morocco,55572 Sullivan Way,http://washingtonpost.com/erat/nulla/tempus/vivamus/in.jpg,29.5769271,-9.0267076,-1
156,Sipes-Predovic,Philippines,55 Monument Trail,http://nhs.uk/turpis.xml,14.6688068,121.1138058,-1
157,Vandervort Group,Philippines,06150 Thierer Crossing,http://kickstarter.com/volutpat/quam/pede/lobortis/ligula/sit/amet.jsp,9.8245916,122.9082413,-1
158,"Schaefer, Hirthe and Ondricka",Albania,6 Ryan Junction,http://discovery.com/morbi.xml,40.9314367,20.0032794,1
159,"Kiehn, Greenfelder and Stehr",China,46 Fair Oaks Road,http://jugem.jp/in/felis/eu/sapien/cursus/vestibulum.js,26.242301,105.943312,-1
160,"Altenwerth, Rau and Olson",Indonesia,2 Shasta Way,http://ox.ac.uk/nulla.jsp,-8.6746707,120.3637277,-1
161,"Streich, Huels and Haag",Philippines,01937 Tomscot Plaza,https://hao123.com/leo/odio/porttitor/id/consequat/in.html,11.4693878,123.1476046,0
162,"Langosh, Marks and Kunde",Sweden,7964 Marcy Street,https://zimbio.com/ipsum/dolor/sit/amet/consectetuer/adipiscing.jsp,59.4871523,18.4207352,-1
163,Bradtke-O'Reilly,China,9 Fremont Junction,http://jiathis.com/interdum/venenatis/turpis.html,59.1987737,17.8332915,1
164,Pfeffer-Kuhic,South Africa,2345 Mariners Cove Park,https://ucoz.com/convallis/eget/eleifend/luctus/ultricies/eu.aspx,-28.7415512,30.461686,1
165,Kautzer-Bednar,China,6 Chinook Junction,http://nhs.uk/eu/felis/fusce/posuere.png,39.822507,109.963338,0
166,Leffler LLC,Nigeria,178 Sugar Crossing,http://gmpg.org/interdum/mauris/non/ligula.jsp,11.0991113,5.2527741,1
167,"Lindgren, Volkman and Lang",Indonesia,1055 Gale Court,https://ow.ly/viverra/pede/ac/diam/cras/pellentesque.js,-8.2383,123.7896,0
168,"Jaskolski, Green and Willms",China,9560 Washington Pass,http://google.pl/amet/eros/suspendisse/accumsan.aspx,30.2427011,120.1502699,-1
169,"Conn, Bartell and Bechtelar",China,233 Monterey Terrace,http://admin.ch/lobortis.jsp,29.117096,110.479191,0
170,"Howe, Braun and Thiel",Indonesia,8 Pond Pass,http://phpbb.com/faucibus/cursus/urna/ut/tellus.html,-1.259553,104.100502,1
171,Schiller-Rice,Nigeria,48 Meadow Vale Place,http://alibaba.com/faucibus.json,6.5346309,5.1601499,1
172,Mante and Sons,Portugal,0 Express Point,http://etsy.com/ligula/sit/amet/eleifend/pede/libero.aspx,41.3715365,-8.7162646,1
173,Feest-Roob,Peru,56456 Scofield Center,http://redcross.org/tellus/nisi/eu/orci/mauris.xml,-16.4359692,-71.6050339,0
174,Reichert-Bergnaum,Russia,4336 Bay Point,http://comcast.net/ante/ipsum.js,60.0043226,56.655672,0
175,Gottlieb and Sons,Cameroon,5494 Dahle Circle,http://moonfruit.com/quis/odio/consequat/varius/integer.jsp,6.7496639,11.8036596,1
176,"Armstrong, Erdman and Kreiger",Japan,6 Petterle Place,https://unicef.org/ligula/vehicula/consequat/morbi/a/ipsum/integer.aspx,31.6173469,131.0471926,0
177,Wisozk-Schuster,China,615 Corscot Road,https://biblegateway.com/vulputate/ut/ultrices/vel/augue/vestibulum.png,33.052837,112.55743,0
178,Reilly Inc,Mauritius,7350 Scofield Street,https://ft.com/lectus/pellentesque/at/nulla.aspx,-20.2180558,57.5334616,1
179,"Goldner, Harris and Zieme",France,563 Union Circle,https://vinaora.com/convallis/nunc/proin/at/turpis/a/pede.xml,48.7700185,2.3508225,-1
180,"Kub, Considine and Glover",Ukraine,2055 Menomonie Circle,https://amazonaws.com/vel.html,49.2917766,31.4465327,1
181,Erdman and Sons,Gambia,13895 Meadow Ridge Place,https://census.gov/justo.png,13.2375414,-14.1959978,1
182,"Howell, Bashirian and Renner",Thailand,5 Kensington Trail,https://wufoo.com/nullam/porttitor/lacus/at/turpis/donec/posuere.jsp,16.7445704,100.1367166,0
183,Bartoletti-Hudson,Indonesia,4742 Chinook Way,https://i2i.jp/in/tempus/sit/amet.js,-6.695,111.464,-1
184,Daniel Group,Indonesia,7 Packers Drive,http://globo.com/interdum/venenatis/turpis.aspx,-7.0777326,113.287085,0
185,Spencer-Bartell,Russia,8 Burning Wood Street,http://hexun.com/volutpat/convallis/morbi/odio/odio.jpg,55.5739183,38.9204498,1
186,"Robel, Spencer and Bernhard",Pakistan,0 Di Loreto Terrace,http://wp.com/ultrices/posuere/cubilia/curae/donec/pharetra/magna.aspx,24.5552816,68.9071861,0
187,Schiller-Schuster,China,20 Pankratz Center,https://edublogs.org/primis.png,44.5436259,129.6373897,1
188,"Leuschke, Dickinson and Cormier",Ivory Coast,25 Kropf Pass,http://freewebs.com/fusce/congue/diam/id/ornare/imperdiet/sapien.js,9.2716618,-2.9925577,0
189,"Bauch, Hintz and Kub",Macedonia,27442 Maywood Trail,http://wikia.com/ut/erat/curabitur/gravida/nisi.jpg,41.7156359,20.9777418,1
190,Jacobson and Sons,Philippines,69617 Thierer Place,https://alibaba.com/sapien/a/libero/nam/dui/proin/leo.jpg,13.874099,120.972283,1
191,Bergnaum Inc,Pakistan,351 Scott Alley,http://time.com/nisi/at/nibh/in/hac/habitasse/platea.jpg,32.2865221,71.5558263,0
192,"Hansen, Ward and Schuppe",Philippines,5 John Wall Alley,https://ibm.com/lobortis/est/phasellus/sit/amet/erat.js,7.20312,124.796217,0
193,"Lang, Corwin and Durgan",Nigeria,45 Donald Crossing,http://va.gov/dui/vel/sem.jpg,7.55,3.43333,-1
194,Homenick-Friesen,Russia,484 Transport Plaza,http://bluehost.com/et/magnis/dis/parturient/montes/nascetur.jpg,59.927607,32.296821,0
195,Ratke LLC,China,13222 Marquette Avenue,https://craigslist.org/nam/dui.js,47.013342,89.832786,1
196,Konopelski Inc,Somalia,09529 Pine View Hill,https://infoseek.co.jp/turpis/enim/blandit/mi/in.xml,3.809294,43.2461055,0
197,"Rempel, Stehr and Borer",Indonesia,76221 Towne Road,https://reuters.com/ac/leo/pellentesque/ultrices/mattis.jsp,3.541868,98.729681,0
198,Roob Group,Philippines,5503 Moose Crossing,https://theguardian.com/sit.html,13.9293954,121.3228399,0
199,"Quigley, Wolff and Orn",Poland,92 Blackbird Way,https://sina.com.cn/adipiscing/elit.jsp,50.1218351,18.3198228,1
200,"Yundt, Kunde and Glover",Indonesia,488 Banding Hill,https://ucsd.edu/donec/pharetra/magna/vestibulum/aliquet/ultrices.json,-8.5324245,120.7982029,0
201,"Gaylord, Greenfelder and Oberbrunner",Philippines,9 International Drive,http://indiegogo.com/praesent/blandit/lacinia/erat/vestibulum/sed.html,14.0651123,121.2462166,1
202,Abbott-Schimmel,Portugal,59 Hovde Way,http://cornell.edu/platea.json,37.760365,-25.7013016,-1
203,O'Hara-Nader,Thailand,970 Laurel Trail,https://opera.com/sit/amet/diam/in/magna/bibendum/imperdiet.jsp,15.787156,104.1478667,0
204,Skiles LLC,Chile,74 Northwestern Pass,https://mapy.cz/aliquam/sit/amet/diam.jpg,-36.8201352,-73.0443904,0
205,"Marvin, Lockman and Beatty",China,06 Ludington Parkway,http://amazon.de/eros/viverra/eget.xml,34.727798,109.264659,-1
206,Jaskolski Inc,Greece,56 Butternut Trail,http://biglobe.ne.jp/nisl/aenean/lectus.xml,38.3741418,23.1060007,0
207,Ondricka and Sons,China,0 Melvin Center,http://wikimedia.org/vel.aspx,35.529096,112.849999,0
208,Jakubowski Group,Ireland,7 Sherman Point,http://mail.ru/faucibus.jsp,53.3829319,-6.266734,1
209,Nicolas-Harber,Mexico,6 Dawn Circle,https://youku.com/eleifend/quam/a/odio.html,20.3411024,-103.9970779,1
210,Hilll Group,China,055 Manitowish Lane,http://1und1.de/curabitur/gravida.jsp,31.830035,115.388966,0
211,Stamm Inc,Indonesia,4809 Hoepker Street,https://admin.ch/parturient.json,-7.0970638,107.5771444,1
212,"Feeney, Waters and Streich",France,5168 Hayes Center,https://reuters.com/sed.html,48.9086571,2.4532855,0
213,"Gutkowski, Baumbach and O'Hara",Indonesia,92 Badeau Road,http://sina.com.cn/nec/condimentum.png,-6.3398714,108.2970692,-1
214,"Rogahn, Hammes and Jacobs",Indonesia,0683 Aberg Avenue,http://zimbio.com/interdum/venenatis/turpis/enim.xml,1.504786,103.82287,0
215,Sporer-Osinski,Tunisia,87 Nevada Street,https://cloudflare.com/diam.html,35.70915,10.67397,1
216,O'Keefe LLC,China,7930 Talisman Avenue,http://admin.ch/ut/at/dolor/quis.json,23.199183,113.256439,1
217,"Hansen, Zemlak and D'Amore",Russia,517 Carioca Terrace,https://reddit.com/rutrum/ac/lobortis/vel/dapibus/at.xml,45.0052663,41.1199008,0
218,Koch Group,Vietnam,82031 Ryan Terrace,http://tumblr.com/maecenas.png,13.3807374,109.1068822,0
219,Boyle Inc,China,06115 Meadow Vale Park,https://sphinn.com/sapien/urna/pretium/nisl.jsp,30.150684,115.134207,-1
220,"Hilpert, Lang and Gulgowski",Portugal,41040 Grim Pass,http://sitemeter.com/est/et/tempus/semper/est.html,37.1408036,-8.8622841,0
221,Schimmel-Jakubowski,Russia,055 Evergreen Plaza,https://cisco.com/molestie/hendrerit/at/vulputate.jsp,53.8037886,33.5628446,0
222,Yundt Inc,Russia,301 Ilene Place,http://tmall.com/vestibulum/vestibulum/ante/ipsum/primis/in/faucibus.xml,54.6464526,44.8234696,-1
223,Greenholt LLC,Japan,99 Mcbride Crossing,http://slideshare.net/sodales/scelerisque/mauris/sit/amet/eros/suspendisse.json,34.0753818,131.2449277,-1
224,"Vandervort, Wisozk and Hand",Cambodia,50 Sunbrook Pass,http://nydailynews.com/in/hac/habitasse.aspx,12.1392352,104.5655273,1
225,"Lind, Halvorson and Friesen",Mongolia,19916 Canary Center,http://google.com.au/non/velit.aspx,47.5,96.2,0
226,"Mante, Waters and Mueller",China,4329 Carioca Trail,https://homestead.com/donec/ut/mauris/eget.json,25.489999,103.796167,0
227,"Gutkowski, Barrows and Pacocha",Germany,4 Stoughton Place,http://independent.co.uk/ultrices/posuere/cubilia.json,48.0044582,7.8374651,0
228,Kihn-Witting,China,60488 Bashford Park,http://live.com/in/congue/etiam.html,24.9936281,121.3009798,0
229,VonRueden-Powlowski,Japan,93989 Rockefeller Drive,http://about.me/hendrerit/at/vulputate/vitae/nisl/aenean.html,31.416598,130.3112926,1
230,Braun-Howe,Portugal,6935 Shelley Street,http://paginegialle.it/tortor/duis/mattis/egestas/metus/aenean/fermentum.jsp,40.9951643,-7.4476838,-1
231,Pouros LLC,Indonesia,819 Hallows Crossing,https://unc.edu/at/diam.jsp,-8.8899,121.2806,0
232,Harris-Toy,Portugal,3622 Vahlen Place,http://nsw.gov.au/mi/sit/amet/lobortis/sapien.jpg,40.2269318,-8.5714359,0
233,Lindgren LLC,Burkina Faso,595 Jenna Parkway,https://tripadvisor.com/nec/nisi/volutpat/eleifend.json,13.0695031,-3.0626284,0
234,Blanda-Jakubowski,Sweden,20982 Redwing Place,http://army.mil/ullamcorper/augue/a/suscipit/nulla/elit/ac.jpg,57.9936068,16.3041503,1
235,O'Conner-Baumbach,Indonesia,686 Scofield Street,https://hostgator.com/convallis/eget/eleifend.xml,-8.219061,128.941023,1
236,"Klein, Blanda and Monahan",South Korea,94 Superior Point,https://tripadvisor.com/justo/nec.jpg,38.1056484,127.7080492,1
237,"Stracke, Legros and Botsford",Chile,74773 Fulton Crossing,http://nymag.com/congue/eget/semper/rutrum/nulla/nunc.png,-37.7178812,-72.2374343,0
238,"Pfeffer, Erdman and Lakin",Hungary,1 Ruskin Center,https://reference.com/justo/morbi/ut/odio/cras.js,47.585569,18.3979984,1
239,Huels-Johnson,Cuba,9070 Portage Avenue,https://facebook.com/enim/leo/rhoncus/sed/vestibulum/sit.aspx,22.1461138,-78.9712451,1
240,Morar-Langosh,China,06141 Sachtjen Park,http://g.co/nulla/ac/enim.json,48.1973404,16.3587247,0
241,"Breitenberg, Armstrong and Bergnaum",Greece,29033 Beilfuss Terrace,http://creativecommons.org/magna/at.js,35.1674,25.48139,1
242,Abbott Inc,Kiribati,80 Del Mar Center,https://aboutads.info/turpis/sed/ante.xml,1.968543,-157.3936469,0
243,"Block, Leannon and Wintheiser",Indonesia,6126 Northwestern Point,https://jugem.jp/magna/at/nunc/commodo/placerat/praesent/blandit.json,-10.7400087,123.0453219,0
244,Mueller-Altenwerth,Philippines,885 Stang Place,http://wikipedia.org/in/faucibus/orci/luctus/et/ultrices.json,14.6155555,120.9837955,-1
245,Dare-Spencer,Indonesia,56 Leroy Hill,https://cnn.com/lacus/at/velit/vivamus/vel.html,-8.5895217,117.2793685,-1
246,"Conn, Quigley and Spinka",China,05480 Elka Lane,https://netvibes.com/fusce/consequat/nulla.aspx,28.074649,119.141473,0
247,Crist-Wyman,Portugal,475 Maple Wood Drive,http://moonfruit.com/vitae.js,38.927978,-9.238643,0
248,Wilderman LLC,Indonesia,438 Schiller Hill,https://nhs.uk/dapibus.aspx,-6.908469,107.6112438,-1
249,Christiansen-Kozey,Indonesia,9342 Nancy Trail,http://census.gov/quam.js,-8.5324,115.1246,1
250,Ritchie-Considine,Republic of the Congo,9 Vahlen Terrace,https://naver.com/tempus/sit/amet/sem/fusce/consequat/nulla.html,-4.2633597,15.2428853,-1
251,"Mueller, Cruickshank and Gutmann",United States,2 Ilene Plaza,http://hp.com/ut/nulla/sed/accumsan/felis/ut/at.json,41.0901834,-73.541744,1
252,"Walter, Rice and Ebert",Brunei,2056 Prairie Rose Terrace,http://globo.com/elementum/ligula/vehicula/consequat/morbi/a.aspx,4.6101062,114.3311718,0
253,"Halvorson, Cassin and Lowe",France,7 American Parkway,http://biglobe.ne.jp/magna/vulputate/luctus.png,48.7803815,2.4549884,0
254,"Hane, Nienow and Lemke",Colombia,8 Heath Street,http://google.co.uk/magna/at.html,3.7733312,-76.1551866,-1
255,Witting Group,Portugal,705 Holy Cross Circle,http://alexa.com/porttitor/lacus/at/turpis/donec.jpg,40.5845053,-8.0854006,-1
256,Kutch Inc,Poland,4658 Caliangt Road,http://youtu.be/aliquam/sit/amet/diam.html,49.5471943,19.7385089,1
257,Larson Inc,China,0 Prairie Rose Trail,https://1und1.de/nunc/proin/at/turpis.jpg,32.448742,114.038736,1
258,Rath-Waters,United States,0 Corry Plaza,https://bravesites.com/vulputate/ut/ultrices/vel/augue/vestibulum/ante.jpg,44.9951298,-93.4352207,0
259,Cronin and Sons,Philippines,53387 Melrose Road,https://msu.edu/odio/justo/sollicitudin.jpg,12.3437798,121.3345788,1
260,Berge-Carter,Russia,29 Judy Way,http://chronoengine.com/libero/non/mattis/pulvinar/nulla.jsp,43.1195464,131.8841502,0
261,Bosco-Reichel,Hungary,04315 Aberg Place,http://liveinternet.ru/felis/eu/sapien/cursus/vestibulum/proin.aspx,48.1067292,20.8193403,0
262,Hartmann-Ledner,Thailand,64 Debra Place,https://sfgate.com/aliquam/lacus/morbi/quis.jsp,16.167313,99.950724,0
263,Brakus-Kilback,Indonesia,69822 Scoville Way,https://upenn.edu/quam/nec.jpg,-8.3243906,122.9846079,-1
264,Crona-Daugherty,Portugal,1767 Roxbury Trail,http://g.co/etiam/faucibus/cursus/urna/ut/tellus/nulla.jsp,41.3666,-8.1991612,-1
265,"Jerde, Metz and O'Keefe",China,6 Union Road,http://sciencedirect.com/sed/augue.jpg,23.696329,117.433977,-1
266,Zulauf Group,China,950 Grasskamp Drive,http://yale.edu/odio/elementum/eu/interdum/eu.jsp,20.044412,110.198286,-1
267,"Nienow, Ferry and Treutel",Portugal,5 Steensland Hill,http://slate.com/diam/vitae/quam/suspendisse.jpg,38.414101,-28.339109,0
268,Maggio Group,Portugal,2 Iowa Center,http://yellowpages.com/nonummy.jpg,40.4579077,-7.845845,1
269,Marks Inc,Kazakhstan,7 Russell Drive,https://naver.com/lobortis/vel/dapibus/at/diam/nam/tristique.html,45.6232258,63.3139829,1
270,Gusikowski-Haag,China,46773 Homewood Trail,http://boston.com/sit.xml,22.353499,112.39266,0
271,"Murazik, Treutel and McCullough",South Korea,7 Red Cloud Hill,http://unblog.fr/a/pede/posuere.xml,37.7838437,126.283172,1
272,"Armstrong, Hilll and Becker",Brazil,8 Michigan Court,https://ebay.co.uk/ac/enim/in/tempor.xml,-14.0699124,-39.5278264,1
273,"Hermann, Ziemann and Keeling",Japan,78322 Fairfield Place,https://github.io/porttitor/pede.png,36.7336287,137.1426455,-1
274,"Beier, Powlowski and Dickinson",Venezuela,06 Farragut Point,https://domainmarket.com/habitasse/platea/dictumst/etiam/faucibus/cursus.png,10.3846169,-67.0166725,-1
275,Quitzon and Sons,United States,678 Monument Center,https://earthlink.net/magna/ac/consequat/metus/sapien/ut/nunc.json,41.2420649,-80.8488498,1
276,"Weimann, Kuhn and Heathcote",Russia,48 Esker Circle,http://usgs.gov/et/magnis/dis/parturient/montes/nascetur.jsp,54.920665,43.347223,1
277,Wilderman-Spinka,China,07852 6th Crossing,https://domainmarket.com/at/feugiat/non/pretium/quis/lectus/suspendisse.js,25.692699,117.847115,-1
278,"McKenzie, Funk and Stark",China,5501 Arizona Center,http://desdev.cn/ut/rhoncus/aliquet/pulvinar/sed.png,35.0702051,118.2536287,1
279,O'Hara LLC,Japan,6 Hoepker Avenue,https://mail.ru/non/sodales/sed/tincidunt/eu/felis.jpg,42.9506191,143.1041325,-1
280,"Cole, Schowalter and Larkin",United Kingdom,1290 Columbus Avenue,http://ifeng.com/ultrices/enim/lorem/ipsum.aspx,53.8145,-1.56285,1
281,Schimmel Group,China,71 Northwestern Circle,http://prlog.org/faucibus.json,39.525207,117.711487,-1
282,"Sipes, Bergstrom and Rutherford",Zambia,771 Kennedy Terrace,http://jiathis.com/eu/massa/donec/dapibus/duis/at.jpg,-8.8536444,31.3655989,-1
283,"Reynolds, Quitzon and Bartoletti",China,9 Farwell Park,https://google.de/at/velit/eu.html,45.76629,126.610421,0
284,"Skiles, Corwin and Jacobi",Thailand,7945 Troy Court,http://arizona.edu/nascetur.aspx,17.1390992,102.9715346,0
285,"Little, Walker and Quitzon",Sweden,58371 Grayhawk Hill,https://twitpic.com/et/magnis/dis/parturient.html,47.0163969,-68.1430029,-1
286,"Farrell, Wehner and Schaden",France,3 Veith Hill,https://homestead.com/aenean/lectus/pellentesque/eget/nunc/donec/quis.xml,47.9962116,-4.1020654,0
287,Fisher and Sons,Germany,84 Melvin Street,https://techcrunch.com/libero/nam.xml,51.1730117,7.2822788,-1
288,Hoeger-Keebler,Slovenia,5775 Sloan Plaza,https://e-recht24.de/nulla/nisl/nunc/nisl/duis/bibendum/felis.json,46.5756337,16.1741662,1
289,Gottlieb-Hackett,France,46024 Sundown Parkway,https://spotify.com/dapibus.js,46.6328109,-1.811786,0
290,Langosh-Little,Tunisia,928 Mcbride Trail,https://hugedomains.com/vestibulum/sit/amet/cursus/id/turpis.aspx,35.5732078,8.6683097,-1
291,"Skiles, Reichel and Predovic",Croatia,86 Declaration Alley,http://cbslocal.com/in/faucibus/orci/luctus/et.jpg,46.3899032,16.6974271,1
292,Dooley-Koelpin,China,3484 Duke Point,https://posterous.com/vulputate/vitae/nisl/aenean.jsp,26.433417,110.856622,-1
293,Ziemann Group,Indonesia,7 Milwaukee Center,http://bbb.org/quis/tortor/id/nulla/ultrices.aspx,-6.988321,112.8384257,0
294,"Rutherford, Bashirian and Murray",China,9 Golden Leaf Street,https://trellian.com/dictumst/morbi/vestibulum/velit/id/pretium.html,24.960385,118.386279,1
295,"Morissette, Schroeder and Stiedemann",Colombia,197 Maryland Plaza,https://cafepress.com/cras/mi/pede/malesuada.jpg,4.956167,-76.607349,1
296,"Hudson, Vandervort and Raynor",Belarus,88559 Myrtle Plaza,http://wisc.edu/sollicitudin/ut/suscipit.jpg,52.3979454,23.8257811,-1
297,"O'Kon, Moore and Eichmann",Colombia,96596 Hoepker Avenue,http://amazon.de/enim/in/tempor/turpis/nec.xml,4.4210661,-76.1899661,-1
298,"Ortiz, Ritchie and Nicolas",Slovenia,81 Bultman Junction,http://cmu.edu/justo/sit.html,45.4698284,13.6405292,-1
299,"Stiedemann, Conn and Goyette",China,2 Orin Drive,http://squarespace.com/rutrum/at/lorem.png,30.108216,104.677091,0
300,Barrows-Bechtelar,Greece,46302 Randy Park,https://microsoft.com/eu/nibh/quisque/id/justo.js,37.7881713,20.874871,0
301,"O'Conner, Barton and Runte",China,61997 Lyons Park,http://mayoclinic.com/dapibus.xml,24.546876,107.04219,1
302,"Hackett, Reichel and Hoeger",Indonesia,3 Monterey Lane,http://e-recht24.de/ipsum/ac/tellus/semper/interdum/mauris.json,-6.7992297,106.7620174,-1
303,"Champlin, McCullough and Keeling",Poland,5022 Calypso Circle,http://wp.com/blandit.jpg,49.7287057,20.1353402,-1
304,Emard-Mraz,Peru,13 Hansons Avenue,https://reference.com/sed/augue/aliquam/erat/volutpat.js,-6.5581455,-77.815285,1
305,"Sipes, Schaefer and Prosacco",Albania,95375 4th Pass,https://google.cn/posuere/cubilia.js,40.74389,19.93528,0
306,"Leannon, Rath and Lang",Belarus,35 Warbler Drive,https://washington.edu/molestie.html,53.6693538,23.8131306,-1
307,Kohler-Ledner,China,12933 Maryland Avenue,http://walmart.com/luctus/tincidunt/nulla/mollis/molestie/lorem.json,30.453667,114.872199,1
308,"Runolfsdottir, Douglas and Fisher",China,2388 Quincy Plaza,http://prlog.org/massa/id/nisl/venenatis/lacinia.aspx,38.416663,112.734174,0
309,Heaney and Sons,Indonesia,96219 Kedzie Way,http://over-blog.com/pede/justo/eu.png,-6.571261,105.782995,1
310,Stehr-Muller,Nicaragua,4 Barby Court,http://wiley.com/sapien/non.xml,13.4817182,-86.4920736,1
311,Howell Inc,China,07333 Oak Pass,https://discovery.com/sodales.json,39.059554,117.457493,0
312,Nitzsche-Stroman,Malaysia,16 Blackbird Point,https://cloudflare.com/erat/quisque.aspx,5.419092,100.343645,0
313,Moore Group,Philippines,935 3rd Drive,https://weibo.com/eros/suspendisse/accumsan/tortor/quis.js,9.673631,123.326062,0
314,"Glover, Schowalter and Witting",Democratic Republic of the Congo,8089 Warbler Pass,http://cam.ac.uk/consequat.aspx,-1.9296172,18.291137,-1
315,Reynolds and Sons,Peru,652 Sachs Street,https://nasa.gov/libero/quis/orci/nullam.jpg,-16.4981761,-69.1014935,-1
316,Gaylord LLC,South Korea,97453 Lighthouse Bay Center,https://bigcartel.com/semper/rutrum/nulla/nunc.jsp,36.1125,129.35222,0
317,Ferry-Mitchell,Brazil,89265 Mitchell Court,http://cpanel.net/sed/vestibulum/sit/amet.jpg,-20.9052746,-46.995789,0
318,Legros and Sons,China,01 Prairieview Trail,https://globo.com/ut.js,34.527114,108.842622,-1
319,Turcotte LLC,Brazil,996 Gale Alley,https://behance.net/magna.xml,-29.9629768,-51.629387,1
320,Koepp-Howe,Indonesia,9 Basil Trail,https://icio.us/semper/rutrum.aspx,-7.7929433,110.3249238,1
321,Legros-Nitzsche,China,2 Thierer Terrace,https://fastcompany.com/donec/quis.aspx,30.7833,114.41144,-1
322,"Lebsack, Gerlach and Bartell",Japan,75371 Buell Alley,http://issuu.com/mi/nulla/ac.html,32.6521604,130.675613,1
323,Quigley and Sons,China,94106 Stang Plaza,http://huffingtonpost.com/tellus/semper/interdum/mauris.jpg,19.8838774,110.4153075,-1
324,"Schoen, Fahey and Satterfield",China,95 Bluejay Hill,https://myspace.com/ante/vivamus/tortor.jpg,28.15041,115.667833,0
325,"Boyle, Ritchie and Barton",Indonesia,3502 Elka Place,https://weibo.com/nulla/neque/libero/convallis/eget/eleifend/luctus.json,-7.9293213,113.013113,0
326,Ryan-Koelpin,Ukraine,42 Dakota Hill,http://delicious.com/porttitor/lacus/at/turpis/donec/posuere/metus.jsp,48.3424531,24.5753746,-1
327,Bode and Sons,Philippines,9 Farmco Court,https://weibo.com/imperdiet/nullam.png,14.576059,121.122805,0
328,Johnston LLC,China,2 Calypso Trail,https://dailymotion.com/nunc/proin/at.js,30.830898,120.92585,-1
329,"Osinski, Schiller and Schowalter",Ukraine,76 Londonderry Road,http://yahoo.co.jp/diam/nam/tristique/tortor/eu/pede.js,48.1547935,25.7100722,-1
330,Stroman Inc,Brazil,7 Melby Lane,https://simplemachines.org/nisl/duis/bibendum/felis/sed/interdum.js,-23.4157731,-51.4264048,0
331,Lubowitz-Howell,China,7994 Mariners Cove Center,https://indiatimes.com/ipsum/primis/in.json,31.984497,118.713868,1
332,"Lebsack, Cormier and Abshire",China,0 Carberry Circle,https://t.co/vulputate/elementum/nullam/varius/nulla.html,31.922974,118.663681,-1
333,Nolan-Kovacek,Brazil,3 Clove Alley,http://ftc.gov/semper/est.html,-19.5803242,-43.9503713,1
334,Bosco Group,China,497 Meadow Ridge Alley,http://meetup.com/sit/amet/consectetuer/adipiscing/elit.aspx,33.12688,106.558023,0
335,Jast LLC,Sweden,483 Eastwood Street,http://nsw.gov.au/eget/eros.html,57.4145669,15.0919158,-1
336,"Tremblay, Parker and Gleichner",China,70907 Katie Pass,http://goodreads.com/quam/turpis/adipiscing/lorem/vitae/mattis/nibh.html,32.101031,114.125656,0
337,Okuneva-Hintz,Madagascar,39 Algoma Avenue,https://ebay.com/luctus/cum.png,-19.3298294,47.6849007,-1
338,"Homenick, Stehr and Kihn",Macedonia,42825 Crowley Center,http://mapquest.com/sociis/natoque/penatibus.xml,41.9844806,21.6211703,-1
339,Walsh-Olson,Indonesia,869 Northfield Hill,http://domainmarket.com/sociis/natoque.aspx,-8.0397618,111.9000827,1
340,Abshire LLC,China,3067 Morrow Alley,https://upenn.edu/ipsum/primis/in/faucibus.aspx,27.487021,110.894824,1
341,Medhurst Group,Guatemala,97175 Fordem Point,http://biblegateway.com/erat/volutpat.js,14.6964199,-89.4030568,-1
342,"Dicki, Flatley and Rath",Chile,2 Pepper Wood Crossing,http://t-online.de/morbi/non/lectus/aliquam/sit/amet.html,-46.5409005,-71.7222795,0
343,"Zulauf, Harvey and Waters",China,1067 Trailsway Park,http://ocn.ne.jp/imperdiet/nullam/orci.jsp,46.774511,130.633035,1
344,Christiansen-Champlin,Ukraine,1363 Redwing Court,https://berkeley.edu/rutrum/ac/lobortis/vel.json,48.1543232,24.8196946,1
345,"Marks, Beier and Lemke",Kosovo,9246 Washington Park,http://answers.com/iaculis/diam/erat.jpg,42.5448774,20.3076276,-1
346,Ebert and Sons,Ukraine,1434 Larry Hill,http://cargocollective.com/nulla/dapibus/dolor/vel/est/donec.json,50.0788069,25.1478942,0
347,Schaden-Sawayn,Philippines,620 Nancy Avenue,https://vkontakte.ru/dui/luctus/rutrum/nulla/tellus/in.jsp,17.18333,120.43333,-1
348,"Simonis, Casper and Maggio",China,398 Brown Circle,https://newsvine.com/tempor/turpis/nec/euismod/scelerisque/quam/turpis.xml,25.055954,118.186288,1
349,Ward-Muller,China,2340 Kinsman Place,http://icq.com/erat/id/mauris/vulputate.xml,24.625561,118.431541,-1
350,"Kuhn, Herman and Bayer",Benin,78227 Kedzie Plaza,https://opensource.org/aenean.js,9.3466822,2.6090043,-1
351,Howe and Sons,Brazil,4 Mitchell Road,http://ucoz.ru/congue/etiam/justo/etiam/pretium/iaculis/justo.aspx,-30.0722165,-51.0969571,0
352,Renner-Prohaska,Tanzania,1628 Dryden Point,http://go.com/maecenas/ut/massa/quis/augue/luctus/tincidunt.html,-3.6809961,33.4271403,-1
353,Gislason-White,Bermuda,2 Bunker Hill Drive,https://posterous.com/est/lacinia/nisi/venenatis/tristique/fusce.aspx,32.2945837,-64.7858887,1
354,"Abbott, Ankunding and Tillman",Azerbaijan,72124 John Wall Street,https://webeden.co.uk/rhoncus/dui/vel/sem/sed/sagittis/nam.js,40.6236168,47.7403034,0
355,"Ebert, Quigley and Schulist",Czech Republic,7692 Bowman Court,https://baidu.com/non/mi/integer/ac.json,49.7245218,16.8754183,0
356,Boehm-Jaskolski,Portugal,71 Kingsford Avenue,http://cdbaby.com/donec/pharetra.html,39.2699174,-9.1052924,-1
357,Collier Group,France,1211 3rd Road,http://ibm.com/aenean/lectus/pellentesque/eget.json,43.952499,4.804022,0
358,"O'Hara, Lehner and Weimann",Philippines,7 Dahle Parkway,https://sakura.ne.jp/nisi/at.xml,8.0088881,124.2824329,0
359,Streich-Olson,China,019 Upham Junction,https://comcast.net/sapien/ut/nunc.json,31.5545599,120.1398158,0
360,Thiel and Sons,Indonesia,288 Sutherland Trail,http://skyrock.com/massa/quis/augue/luctus/tincidunt/nulla/mollis.png,-7.8305129,112.0192359,0
361,Harris Inc,Poland,55807 Barby Street,https://webnode.com/erat/tortor/sollicitudin/mi/sit.aspx,53.2385231,20.1681128,0
362,Eichmann and Sons,Japan,9480 La Follette Hill,https://a8.net/rhoncus/aliquet/pulvinar/sed/nisl.js,35.1083109,136.1458137,-1
363,Monahan-Krajcik,Azerbaijan,79221 Stone Corner Drive,https://infoseek.co.jp/morbi/non.html,41.6252602,48.6763991,0
364,"Keeling, Connelly and Leffler",Kenya,0 Oak Junction,http://jimdo.com/pellentesque/volutpat/dui/maecenas/tristique/est/et.js,0.636206,34.2782765,0
365,"Koss, Osinski and Rodriguez",Indonesia,80497 Grasskamp Circle,http://ucoz.ru/vestibulum/sagittis/sapien.html,-6.8898362,109.6745916,-1
366,Pagac LLC,Philippines,9 Rusk Circle,http://wufoo.com/vulputate.png,14.1512889,120.8576801,0
367,"Gleason, MacGyver and Cassin",South Korea,6 Doe Crossing Way,https://squarespace.com/ultrices/phasellus/id/sapien/in/sapien/iaculis.json,37.6969518,127.8886827,-1
368,Schneider-Grant,Peru,50 Cordelia Parkway,http://examiner.com/mauris/viverra/diam/vitae/quam/suspendisse.json,-12.5825295,-69.1932762,1
369,Wisozk Group,Philippines,90760 Graceland Terrace,http://patch.com/morbi/porttitor/lorem/id/ligula/suspendisse/ornare.xml,7.5617699,125.6532848,1
370,Thompson-Lueilwitz,Peru,4 Darwin Lane,https://sciencedaily.com/nulla/pede/ullamcorper/augue/a.jsp,-9.8535874,-76.631796,0
371,"Ortiz, Mitchell and Hirthe",Mauritania,21 Homewood Hill,https://qq.com/eros/suspendisse/accumsan/tortor/quis/turpis/sed.aspx,16.6143698,-7.2598913,-1
372,Lynch Group,Sweden,226 Stephen Street,https://scientificamerican.com/in/felis/donec/semper/sapien.png,56.6444907,14.224297,-1
373,"Kulas, Johnson and Hickle",Philippines,41 Lukken Plaza,http://cmu.edu/commodo.html,11.144989,123.6441498,0
374,Langosh-Schimmel,United States,774 Summit Point,https://usda.gov/elementum/nullam/varius/nulla/facilisi/cras/non.jpg,38.4099999,-82.4599999,-1
375,O'Kon LLC,Colombia,44 Straubel Trail,http://unesco.org/aliquam/erat/volutpat/in/congue.json,5.0792613,-75.4111644,-1
376,Schroeder Inc,China,92 Clarendon Junction,https://google.com/et/eros/vestibulum/ac/est/lacinia/nisi.xml,31.2971634,121.4870071,-1
377,Krajcik Inc,China,3 Calypso Place,https://opera.com/id/luctus/nec/molestie.jpg,23.105394,113.874335,0
378,Schmeler Inc,Nigeria,10528 Gulseth Lane,https://bravesites.com/rutrum/nulla/tellus/in/sagittis.aspx,6.1816141,6.5303102,1
379,White LLC,Indonesia,6929 Scofield Park,http://ca.gov/justo/eu/massa/donec/dapibus/duis/at.json,-6.3270611,106.1169299,1
380,"Howell, Bogan and Little",China,25 Forest Drive,https://bing.com/auctor/gravida/sem/praesent/id.jsp,24.803563,115.482733,0
381,Kautzer-Orn,Portugal,572 Clyde Gallagher Avenue,http://statcounter.com/in/libero/ut/massa/volutpat.js,38.7326381,-9.4508962,-1
382,Ortiz-Tremblay,Philippines,27 Carpenter Terrace,http://ycombinator.com/vestibulum/quam/sapien/varius.html,14.7464846,121.0764017,0
383,"Klocko, Sipes and Schumm",United States,27031 Prentice Junction,http://techcrunch.com/vel/nulla/eget/eros.json,29.6237766,-95.4830243,0
384,Boyer-Hegmann,Indonesia,55 Pennsylvania Circle,http://paypal.com/molestie/hendrerit/at/vulputate/vitae/nisl/aenean.png,-7.45,108.033333,1
385,Schroeder and Sons,China,60649 Rieder Avenue,https://nih.gov/erat/tortor/sollicitudin/mi.aspx,30.108216,104.677091,0
386,"Schimmel, Armstrong and Schimmel",Portugal,64 Cordelia Circle,http://hatena.ne.jp/duis/mattis.jpg,41.2529921,-7.9536382,1
387,"Dibbert, Kemmer and Satterfield",Belarus,1381 Aberg Alley,https://mlb.com/natoque/penatibus/et.png,53.9854,30.36,1
388,"Wiza, Sipes and Collier",Chile,45862 Almo Avenue,http://europa.eu/leo/odio/porttitor/id.aspx,-33.0153481,-71.5500276,-1
389,Conn-Sporer,Mauritius,64995 Grover Place,https://hp.com/parturient/montes/nascetur/ridiculus/mus/etiam/vel.jsp,-20.0202559,57.6538221,-1
390,"Emmerich, Tillman and Borer",Sweden,45501 Loomis Road,http://omniture.com/massa/volutpat/convallis/morbi/odio/odio.xml,59.3774523,17.0321193,1
391,Harris-Padberg,Indonesia,0 Commercial Street,https://dmoz.org/ut/volutpat/sapien/arcu/sed.html,-3.6964444,103.3876116,0
392,Marvin Inc,China,31302 Merry Street,https://accuweather.com/in/faucibus/orci/luctus/et/ultrices/posuere.json,39.179865,117.207298,0
393,Thiel-Kozey,Philippines,956 Farmco Junction,http://icio.us/aliquam/lacus/morbi/quis.jsp,15.9016405,120.5878276,-1
394,Pacocha LLC,Portugal,186 Magdeline Pass,http://reddit.com/eget.aspx,38.3089089,-7.7085755,0
395,"Murray, Satterfield and Walker",Greece,8326 Eggendart Place,https://goodreads.com/at.png,40.9880227,24.6966476,-1
396,Fritsch Inc,Indonesia,68304 Stang Way,https://cafepress.com/ultrices/phasellus/id/sapien/in.html,-0.9342008,100.3617345,0
397,"Schiller, Ritchie and Towne",Brazil,10 Northport Point,http://weather.com/odio/consequat/varius.html,-11.3781106,-40.6039185,0
398,Labadie-Schumm,Czech Republic,0 Summerview Road,http://vimeo.com/quisque/erat/eros/viverra/eget/congue.jsp,50.5878419,13.8083154,-1
399,Bailey-Bauch,Argentina,48 Cody Point,https://icq.com/orci.jsp,-34.6126135,-58.5321306,-1
400,Kuhic-Toy,Poland,3 8th Way,https://eventbrite.com/velit/id/pretium/iaculis/diam/erat.jpg,53.46687,15.33337,0
401,Jacobs LLC,Philippines,2121 Green Pass,https://yahoo.com/nascetur.json,15.7832452,121.0086436,0
402,Hills-Raynor,China,78376 Hauk Center,http://163.com/justo/in/hac.json,22.149009,113.217268,0
403,Hettinger-King,Philippines,5027 Texas Court,https://ifeng.com/justo/morbi/ut/odio/cras/mi.html,14.5508865,121.0075554,1
404,Tromp and Sons,Lithuania,0 Union Center,https://lycos.com/mattis/nibh/ligula.aspx,55.41667,22.61667,1
405,"Trantow, Schmidt and Reichert",Iran,64061 Basil Crossing,http://livejournal.com/nulla/mollis/molestie/lorem/quisque/ut.html,31.7640178,54.578097,0
406,"Reinger, Gislason and Trantow",Russia,31 Cascade Drive,https://shareasale.com/justo/morbi/ut/odio/cras/mi.html,69.1979686,33.4406638,1
407,Kovacek Group,Russia,73 Laurel Plaza,https://unblog.fr/integer.jpg,54.0114023,55.8925281,1
408,Ward Group,Russia,8 Tennyson Drive,https://pcworld.com/sapien/iaculis/congue/vivamus/metus/arcu/adipiscing.jpg,52.4159683,41.4278531,1
409,"Little, Predovic and Emmerich",Philippines,72484 Badeau Point,https://jalbum.net/potenti/cras/in/purus/eu.jsp,8.1180013,123.9864049,1
410,Mertz-Beatty,United States,0 Mitchell Circle,http://mapquest.com/nulla/quisque/arcu/libero/rutrum/ac.xml,37.7794055,-122.4494738,0
411,Dare-Bergnaum,China,33451 Meadow Valley Road,https://netscape.com/vestibulum/velit/id/pretium/iaculis.aspx,27.690732,111.45269,-1
412,Legros and Sons,China,396 Riverside Court,https://4shared.com/congue/eget/semper.html,21.270702,110.359368,0
413,"Fadel, Cassin and Gislason",Slovenia,97840 Springs Circle,http://hao123.com/fermentum/donec/ut.html,45.9199884,13.6295806,1
414,"Streich, Gutmann and Runte",Indonesia,365 Everett Trail,http://acquirethisname.com/pharetra/magna/ac/consequat.html,-8.0397618,111.9000827,1
415,"Carroll, Hilpert and Padberg",Indonesia,9 Kedzie Junction,https://vinaora.com/in/sapien/iaculis/congue/vivamus/metus.jsp,-7.1081786,107.9399848,1
416,Beahan-Fay,China,303 Truax Trail,http://independent.co.uk/dictumst/morbi/vestibulum/velit/id.json,30.938787,120.891293,0
417,Thompson and Sons,China,59 Orin Way,http://vistaprint.com/in/hac.aspx,28.663694,118.534841,1
418,"Jacobson, Berge and Morissette",Canada,4 Golden Leaf Crossing,http://moonfruit.com/faucibus.json,53.5412083,-113.2957365,1
419,"Little, D'Amore and Kozey",China,349 Rutledge Junction,https://xrea.com/pellentesque/quisque/porta.jpg,29.859268,89.387008,1
420,"Nolan, Stehr and Quigley",United States,9945 Laurel Avenue,https://weibo.com/pellentesque.json,34.17,-118.12,-1
421,Lebsack and Sons,Indonesia,22 Johnson Plaza,http://canalblog.com/volutpat/dui/maecenas.jsp,-7.6492089,111.4395128,1
422,Collins-Kertzmann,Russia,0 Lerdahl Lane,https://wired.com/orci/luctus/et/ultrices/posuere.js,52.6200204,81.239598,-1
423,Rice-Hodkiewicz,Japan,10 Ryan Avenue,https://ycombinator.com/magnis/dis/parturient/montes/nascetur.html,37.9092189,139.2162168,-1
424,Beier-Dach,Bangladesh,21989 Cardinal Place,https://reddit.com/id/justo/sit/amet/sapien/dignissim/vestibulum.json,26.111545,88.7178035,-1
425,"Prohaska, Kuphal and Veum",Tanzania,647 Lakewood Junction,http://statcounter.com/vestibulum/ante/ipsum.html,-10.3280255,39.3024611,1
426,Hoppe-Little,Portugal,04 Park Meadow Point,http://google.com.br/urna/ut/tellus/nulla/ut/erat.json,41.1645867,-7.7937927,0
427,"Lockman, Ruecker and Wyman",Botswana,67 Texas Parkway,http://multiply.com/quis/turpis/eget/elit/sodales/scelerisque.jsp,-22.433333,26.416667,1
428,"Rutherford, Armstrong and Hodkiewicz",United States,689 Harbort Street,http://edublogs.org/at/diam.js,35.94,-83.99,-1
429,Lehner-Hane,Brazil,537 Gulseth Drive,http://dailymail.co.uk/eget/nunc.jsp,-1.7437356,-47.058302,1
430,Jones Group,China,6618 Jenna Street,https://walmart.com/ut/odio/cras/mi/pede.jsp,38.809086,112.214443,-1
431,Sawayn-Parisian,China,89 Porter Center,https://scientificamerican.com/potenti/in/eleifend/quam/a.html,34.058401,107.319116,1
432,"Marks, Lakin and Koss",Portugal,85200 Porter Terrace,http://devhub.com/fusce/lacus/purus/aliquet.jpg,39.3616253,-9.1576429,1
433,Kovacek-Greenfelder,Azerbaijan,608 Emmet Hill,https://shop-pro.jp/nibh/fusce/lacus.html,39.2051632,48.5100604,-1
434,Franecki-Stiedemann,Sweden,6 Myrtle Circle,http://huffingtonpost.com/bibendum/morbi/non/quam/nec/dui.png,59.0836123,16.18741,0
435,Kshlerin-Swaniawski,China,02271 Sunnyside Parkway,https://mozilla.org/magnis/dis/parturient/montes/nascetur.xml,21.694896,110.307347,1
436,Wyman Group,Philippines,178 Hoepker Court,https://simplemachines.org/est/quam/pharetra/magna.jpg,10.9120328,124.7452068,0
437,Frami-Senger,Philippines,507 Fordem Parkway,https://usnews.com/molestie/lorem/quisque.json,8.3141383,124.8551784,1
438,Schmeler-Pagac,Nicaragua,525 Monica Way,http://dot.gov/varius/ut/blandit/non/interdum/in/ante.xml,12.6757233,-86.571617,1
439,Deckow-Miller,Thailand,121 Stone Corner Parkway,https://ftc.gov/orci/pede/venenatis/non/sodales.aspx,13.6808985,99.4484062,-1
440,Lindgren and Sons,Ukraine,10884 Graedel Way,https://wordpress.com/tristique/in/tempus/sit/amet/sem/fusce.jpg,49.0161213,38.3751403,1
441,Baumbach-Upton,Philippines,16738 Oak Valley Circle,http://quantcast.com/sem.js,7.7601925,125.0095225,-1
442,Bartell-Connelly,Sierra Leone,243 Towne Point,https://timesonline.co.uk/integer/tincidunt/ante/vel/ipsum/praesent.jpg,8.2802196,-10.5718086,1
443,"Legros, Swaniawski and Howell",Lithuania,9441 Novick Alley,https://goo.gl/nec/sem/duis.jsp,55.29639,21.37583,-1
444,Cruickshank-MacGyver,Indonesia,081 Weeping Birch Place,http://netlog.com/vitae/ipsum/aliquam/non/mauris.json,-7.2966,108.1264,1
445,Raynor LLC,France,97217 Hovde Court,http://prweb.com/dui/proin/leo.jpg,44.346784,5.8855505,0
446,Pagac and Sons,France,8 Luster Terrace,https://tuttocitta.it/vivamus/vestibulum/sagittis/sapien.json,43.6575957,4.6337414,1
447,"Wiegand, Steuber and Quigley",Indonesia,125 Portage Junction,http://feedburner.com/placerat/ante/nulla.jpg,-6.8980327,106.8945456,1
448,"Waelchi, Koch and Fay",Ukraine,13 Grim Crossing,http://businesswire.com/tincidunt/nulla/mollis.jpg,49.1037815,25.9110602,1
449,Marvin-Gleason,Philippines,0975 Anhalt Street,https://nasa.gov/sagittis/sapien/cum/sociis/natoque/penatibus.xml,8.508983,125.969667,-1
450,Rodriguez-Beatty,Norway,134 Commercial Court,http://goo.ne.jp/in/libero/ut/massa/volutpat.jsp,63.9994475,11.4774849,1
451,"Boyle, Koch and Adams",Belgium,439 Carberry Alley,http://imgur.com/massa/donec/dapibus/duis.png,50.59219,3.4387783,0
452,"Hirthe, Kshlerin and Hoeger",French Polynesia,6365 Farmco Point,https://about.com/lacinia/aenean/sit.jsp,-17.5516251,-149.5584758,1
453,Schowalter-Fay,Indonesia,555 Kim Drive,https://wired.com/lacus/morbi/quis/tortor/id/nulla/ultrices.html,-6.7120714,108.495859,0
454,Weber-Walker,Iran,2844 Anderson Pass,https://hud.gov/integer/ac/neque/duis.png,31.2682228,56.7973878,1
455,Cruickshank LLC,Brazil,69 Hanson Terrace,https://icq.com/mauris/non/ligula/pellentesque/ultrices.html,-16.0010539,-55.0493375,0
456,Mohr-Quigley,China,7 Buena Vista Crossing,http://harvard.edu/nulla.jpg,34.728584,112.132488,1
457,Schuster-Auer,Japan,627 Judy Center,https://meetup.com/nunc/rhoncus/dui/vel/sem/sed/sagittis.jsp,34.6689265,136.4689157,-1
458,Shanahan-Quigley,Philippines,7173 Hoard Lane,https://godaddy.com/nulla/elit.aspx,8.508983,125.969667,-1
459,Lueilwitz and Sons,Iran,96121 Kingsford Point,http://yahoo.com/fusce/lacus.jpg,33.4049794,49.6962428,-1
460,Watsica-Bartoletti,Honduras,93497 Superior Court,https://printfriendly.com/amet/nunc/viverra/dapibus/nulla/suscipit/ligula.png,14.7292113,-88.0338631,0
461,Cartwright-Gutmann,United States,69 Summer Ridge Hill,http://printfriendly.com/ac/diam/cras.xml,42.4643438,-83.4056438,0
462,Paucek Group,China,454 Kings Place,http://dot.gov/sed/augue/aliquam/erat.aspx,22.676245,113.418215,1
463,Zieme-Sporer,Haiti,1 Armistice Terrace,https://guardian.co.uk/sodales/scelerisque/mauris/sit/amet.jsp,18.2028605,-73.8874799,1
464,McCullough Inc,China,41 Loftsgordon Drive,https://histats.com/massa/id/nisl.aspx,29.115188,93.866536,1
465,"Koelpin, Skiles and Hartmann",Poland,3 Springview Pass,https://state.gov/in/quam.html,50.0797896,20.1777202,0
466,"Tillman, Ernser and Turner",Nigeria,47590 Almo Way,https://answers.com/interdum/mauris/non/ligula/pellentesque/ultrices/phasellus.png,13.3539251,5.2344983,0
467,Nolan and Sons,Kenya,16607 Melrose Alley,http://blogtalkradio.com/ante/ipsum/primis/in/faucibus/orci/luctus.jsp,-1.7864953,37.6311071,0
468,"Altenwerth, Jacobi and Ziemann",Indonesia,02 Farwell Way,http://ed.gov/vel/nulla/eget/eros/elementum.aspx,-6.8864,111.583,-1
469,"Baumbach, Boehm and Bergstrom",Venezuela,674 Sloan Parkway,http://cbc.ca/vel/sem/sed/sagittis/nam/congue/risus.xml,9.7912231,-66.9094499,1
470,Kerluke LLC,Tunisia,1543 2nd Center,http://unicef.org/etiam/vel/augue.js,36.4596214,10.7830826,-1
471,"Botsford, Conn and Rodriguez",Portugal,97395 Atwood Drive,https://dedecms.com/erat/eros/viverra/eget/congue/eget.jpg,41.274605,-8.0974429,0
472,"Ernser, Kassulke and Gerlach",Argentina,3704 Hayes Road,https://jugem.jp/ridiculus/mus/vivamus/vestibulum/sagittis.png,-34.5612986,-58.5878676,1
473,"Reinger, Kilback and Cummerata",Thailand,3 Algoma Hill,https://cnet.com/cras/mi/pede/malesuada/in.jpg,14.6014909,103.0933171,0
474,Stanton and Sons,Argentina,51163 Nobel Hill,https://usatoday.com/donec/quis/orci/eget/orci/vehicula.png,-32.9677252,-68.8493333,-1
475,Berge and Sons,Russia,2758 Westend Terrace,http://last.fm/aliquet/maecenas/leo/odio.js,61.7267327,75.333769,-1
476,Keeling Group,Indonesia,43 Orin Circle,http://tinypic.com/mus.jpg,-6.7597,111.3245,1
477,"Turcotte, Windler and Pfeffer",Sweden,6404 Dorton Parkway,https://columbia.edu/ligula/suspendisse/ornare.json,55.4426515,13.8117207,0
478,Sporer-Kohler,China,0 Green Trail,https://intel.com/erat/nulla/tempus/vivamus/in/felis/eu.js,32.983101,107.766613,1
479,Sawayn LLC,Indonesia,77 Grover Lane,https://nyu.edu/sapien/varius/ut/blandit.xml,-6.9897256,106.6468148,0
480,"Champlin, Okuneva and Reynolds",Peru,9 Hollow Ridge Pass,https://ocn.ne.jp/in/purus/eu/magna.jpg,-8.8228089,-77.4569804,0
481,"Pollich, Parker and Davis",Brazil,18 Monterey Plaza,http://themeforest.net/pellentesque/at/nulla.xml,-20.9508706,-43.8028073,-1
482,"Dicki, Ferry and Witting",China,89383 Drewry Junction,http://home.pl/libero/non/mattis.html,28.9141178,120.0531443,0
483,"Nolan, Willms and Wyman",China,0977 Loomis Center,http://creativecommons.org/dis/parturient/montes.js,26.074478,119.296482,-1
484,"Stehr, Cummings and O'Conner",Azerbaijan,912 Ruskin Court,http://drupal.org/diam/vitae/quam/suspendisse/potenti/nullam/porttitor.png,39.9095503,48.3595122,1
485,Hamill LLC,Portugal,163 Maryland Place,http://sbwire.com/id/luctus/nec/molestie.json,38.6052584,-9.1570572,0
486,Goodwin-Dibbert,China,5929 Lerdahl Park,https://ted.com/fermentum/donec/ut/mauris/eget/massa.json,26.695419,101.841707,0
487,Mertz Inc,Mexico,8702 Porter Parkway,https://google.com.br/maecenas/pulvinar/lobortis/est/phasellus.xml,20.07552,-97.0706848,0
488,Kuhlman and Sons,Japan,1 Annamark Parkway,https://dyndns.org/nisl/venenatis/lacinia.aspx,36.9746168,136.9251078,-1
489,Cummings LLC,Indonesia,3775 Scott Hill,http://canalblog.com/volutpat/erat.jsp,-6.9472168,107.3109745,0
490,"Hessel, Okuneva and Borer",Brazil,1121 Farwell Park,http://youku.com/luctus/et/ultrices.xml,-23.5795137,-47.9985512,0
491,"Kuphal, Stark and McDermott",Armenia,7 Goodland Alley,https://kickstarter.com/nec/dui/luctus/rutrum.xml,41.150505,44.8399721,1
492,"Hilpert, Medhurst and Reilly",China,4 Tennyson Drive,https://nymag.com/nulla.jpg,26.647932,107.917448,0
493,"Gulgowski, Streich and Leuschke",Czech Republic,39 Glendale Parkway,http://ted.com/venenatis/tristique/fusce/congue/diam/id.html,49.781138,14.1671734,1
494,"Monahan, Hayes and Lesch",Netherlands,81 Pleasure Crossing,http://cbslocal.com/pulvinar/nulla.jsp,52.5168356,6.1433403,-1
495,Schinner Inc,Iran,41161 Stang Place,https://smugmug.com/in/purus/eu/magna/vulputate/luctus.html,35.2617507,57.973082,-1
496,Conroy Group,New Zealand,778 Hauk Road,https://biblegateway.com/mauris/lacinia/sapien/quis/libero/nullam/sit.xml,-41.2219337,174.8714559,0
497,"Kuhlman, Kassulke and McCullough",Albania,2908 Sycamore Way,https://un.org/dui/nec/nisi/volutpat/eleifend.xml,40.727504,19.5627596,-1
498,Zemlak-White,Russia,74310 Messerschmidt Point,http://nhs.uk/tellus/semper/interdum/mauris/ullamcorper/purus/sit.json,55.7813005,37.6003808,0
499,"Kris, Kozey and Oberbrunner",Sweden,17577 Summer Ridge Road,http://yale.edu/volutpat.json,59.7448493,17.8041667,1
500,Herman Inc,Brazil,80936 Gerald Road,http://google.pl/ipsum/aliquam/non/mauris/morbi/non/lectus.jpg,-7.1765167,-47.2923893,-1
501,"Rempel, Krajcik and Prosacco",Ireland,2042 Vermont Pass,https://comcast.net/vel/augue/vestibulum.xml,53.213319,-6.67045,1
502,Waelchi LLC,Brazil,3 Truax Parkway,https://ca.gov/adipiscing/molestie/hendrerit.js,-21.224741,-50.863384,0
503,Hills and Sons,Kenya,0307 Lillian Court,https://barnesandnoble.com/accumsan/tortor/quis.jsp,1.0784436,34.1810057,-1
504,"Altenwerth, Fisher and Lubowitz",Russia,006 Butternut Avenue,http://apple.com/blandit/nam/nulla/integer.json,53.1294318,87.4792556,1
505,"Stark, Heller and Lebsack",China,16786 Sugar Pass,http://goo.ne.jp/est/quam/pharetra/magna/ac.js,34.749864,106.137293,0
506,Goyette-Connelly,Madagascar,08356 Upham Parkway,http://google.com.hk/quis/orci/eget/orci/vehicula.png,-23.3516191,43.6854936,1
507,Welch LLC,China,7 Dixon Junction,https://dmoz.org/tristique/in/tempus/sit.aspx,39.401147,113.115161,-1
508,Green Inc,Finland,816 Declaration Place,https://merriam-webster.com/vulputate/justo.html,60.2093922,24.7375208,1
509,"Marquardt, Murray and Prosacco",Indonesia,15001 Grasskamp Terrace,https://wunderground.com/donec/semper/sapien/a/libero/nam/dui.xml,-7.2789,107.0659,0
510,Pagac-Borer,Nicaragua,4 American Junction,https://freewebs.com/in/eleifend/quam/a/odio/in/hac.aspx,11.8586314,-86.2412543,0
511,Pfannerstill LLC,Philippines,3 West Place,https://nbcnews.com/leo/rhoncus.jsp,14.5699334,121.0204582,1
512,Nicolas-Murphy,China,465 Twin Pines Street,http://cmu.edu/nibh/fusce/lacus/purus/aliquet.aspx,28.818645,107.019761,1
513,Auer-Wisozk,South Africa,77947 Southridge Alley,https://unc.edu/massa/id/lobortis/convallis/tortor.png,-34.058086,18.6133549,0
514,Skiles and Sons,Indonesia,96 Transport Lane,http://webmd.com/adipiscing/elit/proin/risus/praesent/lectus/vestibulum.png,-7.2042488,107.905287,0
515,Nicolas-Lindgren,Philippines,0 Hovde Lane,https://google.co.uk/justo/lacinia/eget/tincidunt/eget/tempus/vel.json,13.5920158,122.320801,1
516,Kovacek LLC,Albania,385 Debs Trail,http://chron.com/felis/eu.aspx,40.1072856,20.3651385,0
517,Aufderhar Group,Colombia,37 Badeau Lane,https://nih.gov/erat/id/mauris/vulputate/elementum/nullam.js,4.392095,-75.687434,-1
518,Goodwin and Sons,Peru,79 Nobel Court,https://ca.gov/odio/justo.png,-6.8054925,-76.2327036,0
519,Larkin-Baumbach,Thailand,796 Hanson Way,http://biglobe.ne.jp/amet/nulla/quisque/arcu/libero/rutrum.jsp,16.7733926,101.2451095,1
520,Powlowski-Kertzmann,Kyrgyzstan,34 Monument Alley,http://bandcamp.com/sapien.html,40.3132524,73.4445392,0
521,Kub Group,Indonesia,5 Lotheville Lane,https://is.gd/pede.aspx,-6.9534286,111.5021144,-1
522,Block-Ullrich,Tunisia,570 Mayfield Center,https://hhs.gov/eu.jpg,34.3827,8.15549,1
523,"Jerde, Shields and Hessel",Poland,2474 Logan Junction,https://wikispaces.com/feugiat/et/eros.jsp,49.549347,19.65954,1
524,Dickens-Torp,Russia,19247 Barnett Plaza,https://fema.gov/quis/tortor/id/nulla/ultrices.png,46.711547,38.2755861,0
525,Dickinson Group,Poland,2300 Crescent Oaks Alley,http://nba.com/a/libero/nam/dui/proin/leo.xml,49.909141,19.6159543,-1
526,Goodwin-Bins,China,0 Golden Leaf Way,https://liveinternet.ru/lacus/purus/aliquet/at/feugiat/non/pretium.html,37.615159,114.611433,-1
527,Feeney and Sons,China,5542 Monument Parkway,http://163.com/orci.jpg,29.756501,121.507191,0
528,"Senger, Brakus and Upton",United States,0123 Mandrake Plaza,http://goo.ne.jp/morbi.json,41.6,-93.61,-1
529,"Reichert, Upton and Orn",Russia,01 Stephen Trail,https://businesswire.com/massa/tempor/convallis/nulla.html,56.2760278,31.6739899,0
530,Fadel-Kautzer,China,94 Corben Road,http://sbwire.com/vel/sem/sed/sagittis/nam/congue.xml,42.2971095,-71.4720787,-1
531,Stroman LLC,United States,976 Lawn Avenue,http://ocn.ne.jp/aliquam.jpg,35.1002148,-89.8500299,-1
532,"Williamson, Halvorson and Moore",Zimbabwe,31179 Kinsman Road,http://mtv.com/eget/vulputate.xml,-19.6633236,28.865506,1
533,Rohan-Kilback,Brazil,02 Browning Drive,http://about.com/id/ligula/suspendisse/ornare/consequat/lectus.html,-6.4835644,-38.4795129,1
534,Waters and Sons,China,18542 Waywood Avenue,https://irs.gov/elementum/in/hac/habitasse/platea/dictumst/morbi.jsp,36.285616,115.147814,1
535,"Quigley, Durgan and Rosenbaum",Japan,0 Express Lane,https://devhub.com/vestibulum/ante/ipsum/primis/in/faucibus/orci.png,35.9268502,140.5782788,1
536,Gutkowski-Jacobs,Brazil,26610 Hoard Street,http://vinaora.com/faucibus.jsp,-28.4354702,-52.8312661,0
537,Schulist-Heidenreich,Indonesia,0337 Vermont Drive,https://arizona.edu/cras/mi.png,-8.3482,114.2281,0
538,Parker-Erdman,Philippines,2820 Mayfield Center,http://washingtonpost.com/orci/pede/venenatis.jsp,14.4693883,121.0059518,-1
539,"Schaefer, Nienow and Mohr",China,20 Mcguire Court,https://bloglines.com/ante/ipsum.jsp,40.657978,109.840313,1
540,Schiller and Sons,China,1 Daystar Trail,http://archive.org/congue/diam/id/ornare/imperdiet/sapien.html,35.96533,111.533986,-1
541,Lebsack Group,Mauritius,54 Butternut Circle,http://apache.org/sollicitudin/vitae/consectetuer/eget/rutrum/at/lorem.jpg,-20.1100712,57.7261042,0
542,"Becker, Halvorson and Heller",Bangladesh,1 Autumn Leaf Park,https://samsung.com/in/hac/habitasse/platea/dictumst.jpg,23.0246287,89.6439924,1
543,Veum Group,China,4281 Twin Pines Avenue,http://dyndns.org/magna/vulputate/luctus.jsp,33.038408,108.247886,1
544,Cole-Lockman,China,3659 Charing Cross Alley,https://ucoz.com/phasellus/id/sapien/in.js,39.932447,116.430976,0
545,"Feil, Gusikowski and Raynor",United States,10741 Ridgeview Terrace,http://imdb.com/consequat.xml,37.7485824,-122.4184108,-1
546,"Mitchell, Schmeler and Schaden",China,489 Carioca Hill,http://howstuffworks.com/suspendisse/ornare/consequat.jpg,23.090657,113.276884,1
547,"Becker, Emmerich and Heidenreich",Paraguay,18664 Laurel Park,http://unc.edu/dapibus/nulla/suscipit/ligula/in/lacus/curabitur.html,-25.9718022,-55.1900227,0
548,Hegmann-Buckridge,Morocco,3 Buena Vista Drive,https://google.com/sed/magna/at/nunc.aspx,32.7668648,-7.5057737,0
549,Pouros-Mraz,Indonesia,25 Havey Avenue,http://wired.com/vitae/nisi/nam/ultrices.jpg,-3.185681,104.0362587,-1
550,"Cronin, Jenkins and Leuschke",Canada,5 Novick Circle,http://ted.com/libero/convallis/eget/eleifend.jpg,46.171607,-71.875654,0
551,"Schoen, Feest and Bauch",Sweden,72552 Nevada Plaza,https://addtoany.com/montes/nascetur/ridiculus/mus/etiam/vel/augue.aspx,57.690939,11.9118588,0
552,Cremin-Satterfield,Albania,4984 Barnett Lane,https://newsvine.com/integer.xml,40.8103508,19.6460758,1
553,"Buckridge, Lockman and Kihn",Azerbaijan,22569 3rd Circle,https://nydailynews.com/ligula.js,40.5323093,49.710366,-1
554,Upton Group,Indonesia,2 Meadow Ridge Circle,https://skype.com/suspendisse/potenti/in.xml,-8.7872653,116.2804288,-1
555,"Weissnat, Kerluke and Ferry",Afghanistan,5 Cordelia Street,http://soup.io/convallis/morbi/odio.png,36.7550603,66.8975372,-1
556,Lemke Group,Democratic Republic of the Congo,3 Dixon Park,http://naver.com/in.xml,3.033069,29.5397706,-1
557,"O'Kon, Rodriguez and Parisian",China,54 Packers Place,https://addthis.com/luctus/ultricies/eu/nibh.aspx,32.19828,119.47016,1
558,"Schumm, Block and Marvin",Czech Republic,757 2nd Parkway,https://craigslist.org/vestibulum/sit/amet/cursus/id.jpg,49.7529483,13.0041032,1
559,Huels LLC,Indonesia,3 Burning Wood Terrace,http://myspace.com/pellentesque/viverra.html,-6.1270886,139.2233389,0
560,Lesch-Bernier,United Kingdom,702 Quincy Hill,https://ibm.com/posuere/cubilia/curae/nulla/dapibus.jsp,51.5116933,-0.0829051,0
561,"Johnson, Huel and Connelly",United States,5 Pond Street,http://patch.com/turpis/a/pede/posuere.js,47.6849444,-122.2982224,-1
562,"Kautzer, Bergstrom and Leffler",Philippines,0 Shelley Hill,http://51.la/commodo/vulputate.html,14.5697429,121.0190818,1
563,Moore LLC,Colombia,83 Troy Court,https://bluehost.com/id/sapien/in/sapien/iaculis/congue.jsp,10.9819737,-74.9438915,1
564,"Feest, Gusikowski and Wyman",Indonesia,6 Little Fleur Avenue,https://mediafire.com/leo/maecenas/pulvinar/lobortis/est/phasellus.aspx,-0.3462421,112.5245093,-1
565,Jenkins-Crona,Greece,196 Meadow Ridge Park,http://eventbrite.com/rhoncus.aspx,40.1858788,22.002802,1
566,"Spinka, Marvin and Fay",Philippines,804 Briar Crest Avenue,http://dagondesign.com/morbi/non.png,11.0990419,122.6533918,0
567,Wilkinson and Sons,Palestinian Territory,4 Dorton Road,https://google.pl/sed/ante.jpg,32.123667,35.018481,0
568,"Leuschke, Okuneva and Becker",Sweden,53081 Mcguire Road,http://printfriendly.com/cras/mi.aspx,59.2013654,17.7689811,-1
569,Collier-Tremblay,Bulgaria,47 Glacier Hill Court,https://amazon.com/ultrices/libero/non/mattis/pulvinar.png,43.273732,25.9799453,-1
570,Shields Group,United States,9954 Commercial Center,http://oakley.com/consequat/morbi/a/ipsum/integer/a.xml,41.6775685,-83.5629746,-1
571,Morissette-Tremblay,Pakistan,5081 Pine View Hill,https://google.de/in/lectus/pellentesque/at/nulla.js,32.5992796,73.4803095,-1
572,"Sawayn, McKenzie and Wisozk",Poland,09673 Swallow Lane,http://furl.net/consequat/lectus/in.jpg,52.391799,20.1900369,0
573,Marks LLC,China,18729 Summer Ridge Trail,http://auda.org.au/donec/ut/mauris/eget.xml,30.837881,114.13334,1
574,Bosco Group,Portugal,0 Mesta Junction,https://freewebs.com/hac/habitasse/platea/dictumst.xml,40.9860764,-8.530048,-1
575,Thompson Group,Kazakhstan,7513 Main Crossing,https://marriott.com/justo/nec/condimentum/neque/sapien.aspx,45.2415442,77.9726477,-1
576,"Durgan, Jones and Kuhn",Poland,48 Morning Avenue,https://tumblr.com/est/quam/pharetra/magna/ac/consequat.json,49.5491923,22.079037,0
577,"Beer, Lueilwitz and Frami",Poland,80363 Loeprich Road,https://upenn.edu/ac/diam/cras.js,52.8234799,21.3426286,-1
578,"Ullrich, Jakubowski and Parisian",Angola,96120 Summit Trail,https://reddit.com/quisque/erat/eros/viverra/eget/congue/eget.xml,-10.7072554,22.22946,0
579,"Dietrich, West and Spinka",China,3 Graedel Point,http://prweb.com/at/nibh/in/hac.jpg,34.878483,113.277504,0
580,"Howe, Hoppe and Fisher",United States,93853 Dexter Way,http://google.com.au/turpis/a/pede/posuere.json,39.7380371,-105.0265195,1
581,"Hermiston, Kautzer and Robel",United States,16 Briar Crest Way,https://mediafire.com/at/lorem/integer/tincidunt.jsp,28.2107548,-82.2909146,0
582,Dickinson-Gerhold,Indonesia,1 Derek Pass,https://toplist.cz/pede/ac/diam/cras.png,-7.7326298,113.1292657,-1
583,Waelchi-O'Reilly,Morocco,4 Norway Maple Point,https://hubpages.com/adipiscing/elit/proin/risus/praesent.png,30.5312657,-7.9238785,1
584,"Wyman, Kerluke and Pfannerstill",Tanzania,859 Trailsway Point,http://howstuffworks.com/feugiat/et/eros/vestibulum/ac.js,-10.8416198,39.6285874,0
585,"Weimann, Hane and McCullough",China,36322 8th Hill,http://phpbb.com/eget/massa/tempor/convallis/nulla/neque/libero.jpg,32.394209,119.412939,1
586,Ryan Group,Israel,160 Melrose Lane,https://weibo.com/orci/mauris/lacinia/sapien.html,31.87989,35.124097,0
587,Larson Inc,France,540 Drewry Alley,http://amazon.com/pharetra.jpg,49.2752229,1.207968,0
588,Wuckert-Lehner,Kenya,9 Florence Avenue,http://goo.gl/sagittis/dui.aspx,0.490107,35.743418,0
589,Schaefer-Stroman,Mongolia,7 Hooker Park,http://archive.org/tristique/est/et/tempus.html,42.65,103.8,0
590,Beier Group,Ethiopia,21 Acker Hill,https://whitehouse.gov/massa/quis/augue/luctus/tincidunt/nulla/mollis.json,9.0795272,40.8652187,1
591,"Durgan, Lemke and Hermiston",France,4 Spaight Avenue,https://blogs.com/iaculis/congue/vivamus.jpg,43.6953508,7.2559678,-1
592,"Goodwin, Kris and Lakin",Portugal,51 Buena Vista Circle,https://123-reg.co.uk/tincidunt/nulla/mollis.xml,39.0961273,-9.2729402,1
593,"Effertz, Armstrong and Prohaska",China,46610 Butterfield Trail,http://hostgator.com/ut/odio.json,41.420018,128.200789,0
594,"Jones, Haag and Gleichner",Philippines,1527 Bartillon Pass,https://a8.net/quam/fringilla.png,12.6679167,123.9881642,-1
595,"VonRueden, O'Kon and Wilderman",Peru,83 Hallows Trail,http://mysql.com/massa/volutpat/convallis/morbi/odio/odio.jpg,-8.0023449,-78.3095598,0
596,Quitzon LLC,United States,145 Butterfield Place,http://live.com/a/odio/in/hac/habitasse/platea.xml,47.6060781,-122.3329957,0
597,Johns LLC,Mexico,4334 Cambridge Place,http://weibo.com/libero/rutrum/ac/lobortis/vel/dapibus.json,17.7409147,-91.7660525,0
598,Rohan-Wehner,China,7 Sherman Center,http://skyrock.com/montes/nascetur/ridiculus.html,34.714779,111.47239,0
599,"Kertzmann, Kihn and Rau",Peru,8858 Goodland Street,https://economist.com/sapien.json,-4.579855,-74.750168,0
600,Thompson-Nienow,Malaysia,5 Fair Oaks Circle,https://jiathis.com/ipsum/primis/in/faucibus/orci/luctus/et.jsp,4.6096768,101.1064003,-1
601,"Lang, Stokes and Nienow",Croatia,0 Quincy Circle,http://techcrunch.com/erat/nulla/tempus/vivamus.xml,46.2141844,16.9151602,-1
602,Walsh Inc,Netherlands,87352 Kenwood Circle,https://mail.ru/blandit/ultrices/enim.js,52.0442252,5.6463088,-1
603,"Feeney, Kunde and Bogisich",Russia,3 Dovetail Trail,http://a8.net/in/hac/habitasse/platea/dictumst/morbi/vestibulum.jsp,51.1907529,42.2463427,0
604,"Mann, Schmidt and Wilkinson",Indonesia,50 Ohio Street,http://army.mil/nec/molestie/sed/justo/pellentesque.aspx,-6.3472173,106.7474013,1
605,"King, Leuschke and Kohler",Indonesia,05486 Scott Place,https://google.fr/nisl.xml,-10.2413,123.699,0
606,Hane and Sons,Indonesia,085 Glacier Hill Trail,https://paginegialle.it/amet/diam/in/magna.html,-8.2659112,112.0029243,-1
607,"Borer, Schneider and Hagenes",South Korea,797 3rd Point,https://nationalgeographic.com/rutrum/nulla/nunc/purus.jsp,37.0862154,127.0391832,0
608,Becker and Sons,Indonesia,3 Delladonna Pass,http://prnewswire.com/suscipit/ligula/in/lacus/curabitur.js,-6.7131574,107.0185123,0
609,Huel-Mitchell,Afghanistan,23 Johnson Center,http://ibm.com/consequat/dui/nec/nisi/volutpat/eleifend.jpg,35.8042947,69.2877535,0
610,Walter-VonRueden,Lithuania,74 Ronald Regan Terrace,http://fastcompany.com/vivamus/vel.xml,54.141067,25.0156941,1
611,Schulist-Prohaska,China,634 Evergreen Lane,https://odnoklassniki.ru/pellentesque/volutpat/dui.png,35.937102,116.470304,-1
612,"King, Conroy and Cassin",Sweden,9820 Village Avenue,https://sun.com/orci/pede/venenatis/non/sodales.js,57.759167,16.6236443,0
613,Schmitt-Bashirian,Mexico,2109 Dayton Center,http://jugem.jp/eu/sapien/cursus/vestibulum/proin/eu/mi.jsp,16.7620996,-93.1560055,1
614,Wisozk-Nitzsche,Venezuela,28 Schmedeman Plaza,http://indiegogo.com/sit.jsp,10.9015165,-64.0857232,1
615,Heller Group,Portugal,913 John Wall Junction,https://hugedomains.com/luctus/rutrum/nulla/tellus.js,40.2191082,-8.5533397,-1
616,Bergstrom LLC,China,8045 Killdeer Lane,http://hc360.com/nulla.xml,38.416663,112.734174,-1
617,Schultz-Becker,Japan,633 Transport Hill,https://ebay.com/aliquam/sit/amet.jsp,32.5496232,131.6597893,1
618,Gorczany-Cruickshank,Sweden,9 Westridge Crossing,http://opensource.org/nisi.xml,58.3374462,12.5693818,0
619,Heller-Treutel,China,9 Clemons Trail,http://de.vu/dolor/sit/amet/consectetuer.aspx,29.1520649,120.3168231,1
620,Medhurst-Daugherty,Sweden,20477 Sunnyside Junction,http://ox.ac.uk/dis/parturient/montes/nascetur/ridiculus.js,59.1813459,17.4420267,0
621,Haag-Crooks,China,11 Morningstar Way,http://pagesperso-orange.fr/adipiscing/lorem/vitae/mattis/nibh/ligula.js,23.07555,112.007814,-1
622,Weissnat-Schuster,Honduras,57633 Memorial Road,https://mediafire.com/sed/magna/at/nunc/commodo/placerat/praesent.aspx,15.3483742,-88.3967536,1
623,Bradtke-Lesch,Lithuania,49440 Fallview Crossing,https://networkadvertising.org/nibh/in/quis/justo.xml,56.16667,22.1,-1
624,"Pagac, Farrell and Grady",Russia,1507 Red Cloud Junction,http://youtube.com/pede/libero/quis/orci/nullam/molestie/nibh.json,61.5188713,30.1907149,0
625,"Dicki, Wiza and Keebler",China,169 Mayfield Plaza,https://lulu.com/dis/parturient/montes/nascetur.aspx,31.207378,121.4174914,1
626,Schowalter Inc,Yemen,15 Waxwing Center,https://zimbio.com/quis.html,13.13452,43.78636,1
627,Pacocha LLC,Democratic Republic of the Congo,4 Sugar Avenue,http://fc2.com/turpis/integer/aliquet/massa/id.json,-11.7602273,27.2499749,1
628,Lesch and Sons,Portugal,2478 Pankratz Point,http://yolasite.com/lorem/quisque/ut/erat/curabitur.jpg,40.9121933,-8.4162288,0
629,Grimes Inc,Poland,77470 La Follette Center,https://weibo.com/in/felis/donec/semper/sapien.js,52.4874765,15.7562659,0
630,Yundt-Collins,Portugal,9032 Sachs Parkway,https://uol.com.br/ipsum/aliquam.html,38.5691786,-9.0814271,0
631,Bode and Sons,Sweden,5248 Summerview Pass,http://google.ru/erat/volutpat/in.html,58.1970987,15.0537794,1
632,"Thompson, Harvey and Robel",Sweden,7872 Dahle Street,http://mayoclinic.com/convallis/morbi/odio/odio.png,59.5194054,15.9767049,-1
633,Schiller Inc,Poland,508 Graedel Way,https://ft.com/dolor/vel/est.jsp,52.807699,16.0589507,0
634,Kris-Hegmann,Slovenia,23418 Daystar Drive,https://earthlink.net/vehicula.js,46.3782836,15.0461378,0
635,"Waters, Casper and Johns",Gambia,32 Lawn Court,http://friendfeed.com/ac/tellus/semper/interdum/mauris/ullamcorper/purus.js,13.5267844,-14.6719007,-1
636,Jakubowski and Sons,Brazil,73 Rieder Center,http://php.net/volutpat/in/congue/etiam/justo/etiam/pretium.xml,-18.1661375,-47.944531,-1
637,Botsford-Armstrong,Poland,9953 Vahlen Center,https://barnesandnoble.com/quisque/arcu/libero/rutrum.png,52.1899235,18.8632124,0
638,Ullrich Group,Portugal,06 Rigney Crossing,https://last.fm/pede/justo/lacinia/eget/tincidunt/eget.png,41.3432066,-8.5660453,-1
639,"Graham, Hintz and Mraz",Poland,7 Hudson Drive,http://ftc.gov/etiam/justo/etiam/pretium/iaculis.json,50.4868505,17.5957117,1
640,Kirlin Group,Finland,05492 Bluestem Way,http://zimbio.com/felis/sed.jsp,60.0499479,22.6666377,-1
641,Ondricka LLC,China,9 Green Circle,http://telegraph.co.uk/pede/malesuada/in/imperdiet.aspx,30.289195,110.224358,-1
642,Okuneva-Hammes,Peru,33 Gerald Way,http://hud.gov/posuere/cubilia/curae.json,-10.07722,-76.21194,1
643,"Skiles, Lockman and Wolff",France,235 Springs Trail,https://state.tx.us/lacinia/aenean/sit/amet.jsp,46.4064605,-0.201305,1
644,Jakubowski Group,China,0 Norway Maple Plaza,http://liveinternet.ru/orci/mauris/lacinia/sapien/quis.xml,30.315892,120.218758,0
645,"Jakubowski, Nikolaus and Stamm",Russia,8 Green Hill,http://oakley.com/dapibus/dolor/vel/est/donec/odio/justo.js,55.0614182,73.2498639,0
646,"Wyman, Dach and Macejkovic",China,499 Prentice Terrace,https://sourceforge.net/platea/dictumst/aliquam/augue.json,22.69569,112.225334,-1
647,Ebert-Emard,Philippines,7684 Cherokee Street,http://gmpg.org/at/velit/vivamus/vel/nulla/eget.aspx,17.8261143,121.714099,0
648,Russel-Ritchie,China,77444 Prairie Rose Trail,http://bizjournals.com/libero/rutrum.jsp,22.8387258,112.3810562,0
649,"Pollich, Gutkowski and Harvey",United States,5 Monterey Junction,https://constantcontact.com/in/felis/donec.jpg,43.1770344,-77.5504779,0
650,Ondricka and Sons,Indonesia,77 Huxley Street,http://yelp.com/primis/in/faucibus/orci/luctus/et/ultrices.jpg,1.4862816,124.8381456,-1
651,Jones-Nicolas,Palestinian Territory,55732 Arizona Junction,https://cpanel.net/convallis/morbi/odio.js,32.18966,34.97063,-1
652,Turner and Sons,China,399 Hoffman Avenue,https://tamu.edu/id/nisl.jpg,39.974179,116.293727,0
653,"Sanford, Swaniawski and Thompson",China,04876 Waywood Alley,https://mayoclinic.com/platea/dictumst/morbi.xml,39.930136,119.576091,0
654,Jast-Nader,Russia,1420 Farwell Road,http://livejournal.com/praesent.xml,56.6342788,36.885813,0
655,Purdy-Heaney,China,7476 Chinook Point,http://sitemeter.com/nunc/purus/phasellus.json,29.987298,120.897694,-1
656,Bins Inc,Portugal,2 Bartillon Center,https://joomla.org/ut/ultrices.jpg,41.8214682,-7.4930317,1
657,D'Amore-Powlowski,Portugal,53084 Gina Point,http://oracle.com/in/faucibus/orci.jpg,41.1296379,-8.5821823,0
658,Jones-Schumm,China,40 Sage Drive,http://ibm.com/dui/vel/sem.html,40.385424,115.869854,0
659,Mosciski-Moore,Poland,286 Lakeland Parkway,https://miitbeian.gov.cn/erat.jpg,51.4633686,19.0896399,-1
660,Weimann-Treutel,Kyrgyzstan,6068 Declaration Plaza,http://github.com/nunc/nisl/duis/bibendum/felis/sed.xml,40.2487413,72.1297653,0
661,Christiansen-Lebsack,Cuba,5939 Mccormick Parkway,http://skype.com/quis/orci/nullam.png,20.9570351,-75.7197039,-1
662,Herzog-Crist,Canada,0133 Browning Plaza,http://last.fm/vestibulum/proin/eu/mi.aspx,49.2227573,-122.6175451,-1
663,DuBuque-Reynolds,Uganda,79892 Oak Valley Circle,http://addtoany.com/imperdiet/nullam/orci/pede.png,1.347685,34.0432575,-1
664,Casper-Gaylord,Russia,5788 Clarendon Plaza,http://netvibes.com/vitae/ipsum/aliquam.json,50.3485458,39.6505372,0
665,Hilpert and Sons,France,480 Del Mar Court,https://narod.ru/faucibus/orci/luctus.jsp,47.5246265,-0.557101,0
666,Wunsch and Sons,Portugal,2 Sheridan Hill,http://craigslist.org/venenatis/non/sodales/sed/tincidunt.png,41.0394733,-8.5310302,-1
667,Goldner LLC,China,35 Paget Parkway,http://wisc.edu/sed/magna/at/nunc/commodo/placerat.jsp,27.522725,112.507849,1
668,Feil Group,Greece,16 Sachtjen Center,http://weebly.com/tortor/sollicitudin/mi/sit/amet/lobortis.jsp,40.3306084,21.7886602,-1
669,Hilll Group,Serbia,3 American Ash Place,https://latimes.com/posuere/cubilia/curae/nulla/dapibus/dolor.xml,44.9811213,20.0818204,0
670,Reinger LLC,Indonesia,29 Carberry Court,https://businessinsider.com/interdum/in/ante/vestibulum/ante/ipsum.jpg,-5.456385,122.612261,-1
671,Corwin LLC,Uruguay,6 Lakeland Park,http://sphinn.com/volutpat/in.json,-33.2604441,-58.0185646,-1
672,Brekke-Crona,China,28 Rowland Terrace,http://google.com.au/purus/eu.js,26.12715,113.116527,1
673,"Schuster, Metz and Daugherty",China,0 Stang Point,https://blogger.com/nunc/proin/at/turpis.jsp,47.173426,125.9063009,-1
674,Welch and Sons,Philippines,39738 Heath Way,http://soundcloud.com/vestibulum/ante/ipsum/primis/in/faucibus/orci.json,14.6035421,121.0245782,0
675,Krajcik-Sanford,France,377 Straubel Trail,https://uiuc.edu/pellentesque/ultrices/mattis/odio.jpg,47.2174874,-1.5419505,0
676,Goldner LLC,Zimbabwe,846 Heffernan Trail,http://skyrock.com/aenean/auctor/gravida/sem/praesent.json,-16.7698232,31.5769572,-1
677,Mosciski LLC,Albania,5 Northwestern Drive,https://shareasale.com/justo/in.aspx,41.1036618,20.0226337,1
678,"Strosin, Jaskolski and Greenfelder",China,99 Hintze Point,http://timesonline.co.uk/hac/habitasse/platea/dictumst/maecenas/ut/massa.aspx,43.217183,81.836206,1
679,Ullrich-Senger,Ecuador,4 Westport Hill,https://prweb.com/aliquam/convallis/nunc/proin/at/turpis.png,-0.69832,-77.14083,1
680,Maggio and Sons,Peru,282 Fieldstone Place,http://symantec.com/cum/sociis/natoque/penatibus/et/magnis/dis.aspx,-14.35266,-70.094963,1
681,Kovacek-Lueilwitz,Indonesia,5 Stoughton Avenue,https://vk.com/eget/elit/sodales/scelerisque/mauris/sit.json,-10.7333933,123.1260578,0
682,Prosacco-Senger,Sweden,8744 Forest Dale Place,http://mapy.cz/cursus/urna/ut.aspx,59.6048642,16.5096453,1
683,Grimes LLC,Latvia,671 Lakeland Park,https://example.com/quisque/id/justo/sit/amet/sapien/dignissim.aspx,57.2363399,25.0380728,0
684,Blanda-Murphy,Norway,0046 Arizona Avenue,http://hexun.com/primis/in/faucibus/orci/luctus/et/ultrices.json,58.0618351,7.584995,0
685,Lakin-Greenfelder,Russia,84574 Marcy Drive,http://pen.io/justo/lacinia/eget/tincidunt/eget/tempus/vel.js,53.149977,140.6634789,0
686,"Trantow, Rogahn and Baumbach",Indonesia,0436 Surrey Trail,https://twitpic.com/ac.xml,-7.6247732,110.2951364,1
687,Terry Inc,Russia,07144 Dottie Alley,https://time.com/tempus/sit.jsp,54.3413515,77.3007627,0
688,Smith Inc,Benin,85053 Arizona Street,https://cornell.edu/felis/donec/semper/sapien.png,8.0335995,2.4851463,0
689,Fahey Inc,Tunisia,00723 Harper Road,http://skyrock.com/sapien.png,35.4885986,10.9882593,-1
690,Rath-Nienow,China,1096 Everett Lane,http://prlog.org/mauris/viverra/diam/vitae/quam/suspendisse/potenti.html,27.424294,119.914874,1
691,Volkman LLC,Estonia,40951 Park Meadow Center,https://123-reg.co.uk/semper.html,58.3858079,24.4965768,0
692,Simonis LLC,Russia,216 Trailsway Road,https://zdnet.com/praesent/id/massa/id/nisl/venenatis.jpg,44.9869042,37.2580021,0
693,Dooley-Reynolds,Philippines,0 Blackbird Alley,http://bing.com/metus/arcu/adipiscing/molestie.jpg,7.0849817,124.9011398,1
694,Predovic-Moore,United States,90 Mallory Lane,http://washingtonpost.com/feugiat/non/pretium/quis/lectus.jpg,35.1332903,-106.6167113,1
695,"Sawayn, Funk and Sawayn",Poland,05 South Lane,http://desdev.cn/libero/quis/orci/nullam.js,49.970045,19.944654,1
696,Kozey Group,China,16 Alpine Way,http://blogs.com/vitae.html,24.564073,108.525769,0
697,Heathcote and Sons,Croatia,67253 Homewood Drive,https://ameblo.jp/nulla/mollis/molestie/lorem/quisque/ut/erat.aspx,45.0775463,15.3692353,1
698,"Wilkinson, Kling and Leffler",Ecuador,0686 Troy Drive,https://auda.org.au/leo/maecenas/pulvinar.png,-4.3289209,-79.557446,-1
699,Langworth-Feeney,New Caledonia,70173 Towne Street,https://tumblr.com/proin.xml,-22.1678006,166.4574811,0
700,Hauck LLC,Indonesia,1 Twin Pines Court,http://exblog.jp/primis.png,-6.1583904,106.4288088,1
701,"Christiansen, Bergnaum and Macejkovic",South Korea,782 Sunbrook Trail,https://wunderground.com/orci/luctus.html,34.9904542,126.4816856,1
702,Haag Inc,Indonesia,04512 Tennyson Hill,https://princeton.edu/adipiscing.js,-6.3865373,107.4010519,1
703,Moore-Gleason,Czech Republic,95413 Graedel Junction,http://accuweather.com/nulla/justo/aliquam/quis/turpis/eget/elit.jpg,50.4427733,14.9233449,1
704,"Metz, Medhurst and Crona",Vietnam,5708 Rutledge Junction,https://ft.com/leo/odio.jpg,21.121444,106.1110501,0
705,Hamill-Pouros,Indonesia,3400 Bunting Place,https://amazonaws.com/vel.xml,-1.145463,136.0396342,0
706,Moen-Feest,China,96 Bluejay Point,https://google.com.hk/posuere/nonummy.aspx,28.71321,109.496611,1
707,King Inc,Russia,97 Debs Circle,https://odnoklassniki.ru/sapien.png,53.44972,89.52722,1
708,Crist Group,Poland,4949 Carberry Point,https://soup.io/quam/turpis/adipiscing/lorem.js,51.562843,21.6191399,1
709,"Lindgren, Morissette and Waelchi",Colombia,57599 Loomis Court,https://wix.com/in/lacus/curabitur/at/ipsum.aspx,7.0706548,-73.4415929,1
710,Pacocha Group,Portugal,84895 Utah Center,http://sitemeter.com/etiam.jsp,40.0087986,-7.8461427,1
711,Carroll Inc,China,3 Kedzie Alley,http://geocities.com/eros.jsp,29.344616,102.652483,0
712,Hamill Inc,Albania,712 Grasskamp Lane,http://harvard.edu/eget.aspx,39.9481364,20.0955891,1
713,Schoen-Schowalter,Ukraine,2 Hazelcrest Lane,https://shinystat.com/purus/sit.xml,49.6877737,37.1778581,0
714,Heller-Tromp,Palestinian Territory,8496 Bluestem Pass,http://studiopress.com/ut/dolor/morbi/vel/lectus/in.jpg,31.95069,35.46756,1
715,Olson and Sons,Finland,3610 Waubesa Junction,https://ox.ac.uk/cras/non/velit/nec.jsp,61.7644425,23.0729829,1
716,Schumm Group,Russia,47421 Sunbrook Way,https://netscape.com/in/faucibus/orci.jsp,55.5146696,35.8272389,-1
717,Feil-Price,Libya,29517 Leroy Drive,https://blinklist.com/erat/vestibulum.json,32.3196827,15.1025075,1
718,Prohaska and Sons,China,24 Oak Plaza,https://netvibes.com/primis/in/faucibus/orci/luctus/et/ultrices.jpg,46.987383,123.769368,-1
719,Sanford-Treutel,Benin,6 Vidon Street,http://mysql.com/suspendisse/ornare.html,11.8633332,3.3842473,0
720,Pagac-Welch,China,47106 Paget Center,https://t-online.de/ante/vestibulum/ante/ipsum.json,23.365556,116.70345,-1
721,"Gottlieb, Bernier and Greenholt",Pakistan,066 Chinook Drive,https://stanford.edu/fusce/lacus/purus.js,25.8056887,68.4065979,-1
722,Leannon-Bernier,Brazil,9 Weeping Birch Terrace,https://dyndns.org/aliquet/massa/id.html,-22.027222,-42.3652391,1
723,"McGlynn, Batz and Schaden",Latvia,39996 Rieder Lane,https://un.org/hac/habitasse/platea/dictumst/morbi/vestibulum/velit.png,56.8999269,26.7198789,-1
724,Bogan-Hahn,Bolivia,59074 Mockingbird Point,http://bloglovin.com/a/odio/in/hac/habitasse/platea/dictumst.json,-16.20274,-68.693687,-1
725,Stiedemann Group,Cuba,7555 Algoma Court,https://toplist.cz/cubilia/curae/donec/pharetra/magna/vestibulum/aliquet.xml,22.463604,-79.7231612,1
726,"Franecki, Predovic and Mueller",China,46861 Commercial Circle,https://geocities.com/sapien/cum/sociis/natoque.aspx,45.304073,130.980894,0
727,"Kshlerin, Kshlerin and Runte",United States,400 Butternut Hill,https://storify.com/rhoncus/aliquam/lacus/morbi/quis/tortor/id.html,29.9246825,-90.0163544,0
728,Windler LLC,Indonesia,97 Bultman Trail,http://mlb.com/aenean.html,-7.9675395,112.7032945,1
729,Hagenes Inc,Czech Republic,6 Sundown Terrace,https://oakley.com/nunc/rhoncus/dui/vel.json,48.7320309,16.905384,-1
730,Osinski-Swift,France,62 Gateway Place,http://sohu.com/eget/nunc/donec/quis/orci.png,43.974344,1.7811783,0
731,"Hackett, Sporer and Watsica",Armenia,365 Little Fleur Circle,https://springer.com/leo/odio/porttitor/id/consequat/in/consequat.json,40.1068238,44.4322092,-1
732,"Renner, Schmitt and Pagac",China,944 Ronald Regan Alley,http://yahoo.co.jp/nibh/in/lectus/pellentesque/at/nulla.png,39.9226132,116.4606871,0
733,"Gaylord, Crona and Mann",Syria,5124 Sundown Street,http://amazonaws.com/vivamus/vestibulum/sagittis.aspx,32.7407045,36.7738708,-1
734,"Kerluke, Bartell and Lehner",China,24445 Shopko Junction,https://state.gov/id/lobortis/convallis.html,24.315499,109.410683,1
735,"Beahan, Mertz and Stark",Russia,294 Village Park,http://sbwire.com/augue/a/suscipit.xml,55.68871,46.13865,-1
736,Wiza-Medhurst,Philippines,5 Mitchell Street,http://youtu.be/sit/amet.png,14.6155555,120.9837955,-1
737,Schultz-Corkery,Canada,52034 Walton Crossing,https://vkontakte.ru/in/felis/donec/semper/sapien/a.json,45.8486646,-66.4812859,0
738,Kunde Inc,Dominican Republic,09 Pepper Wood Street,http://privacy.gov.au/nam/dui/proin.aspx,19.8084176,-70.7075503,-1
739,Wuckert Inc,Micronesia,06 Glacier Hill Hill,http://gizmodo.com/elementum/ligula/vehicula.jpg,8.1333333,140.4108333,1
740,Kautzer LLC,China,6357 Haas Point,https://cloudflare.com/felis/sed/interdum/venenatis/turpis/enim/blandit.jsp,34.749864,106.137293,0
741,"Muller, Bechtelar and Renner",Indonesia,3570 5th Lane,https://microsoft.com/amet/erat/nulla/tempus/vivamus/in/felis.aspx,-8.0670006,111.907307,-1
742,Ortiz Group,Tanzania,91 Sloan Terrace,https://apple.com/amet/eros/suspendisse/accumsan/tortor.jpg,-4.3589834,37.8220414,0
743,Lindgren-Legros,Malaysia,7694 Leroy Park,http://marriott.com/primis.json,4.6096768,101.1064003,0
744,Corwin and Sons,Philippines,49196 Schmedeman Parkway,http://bluehost.com/sed/ante/vivamus/tortor/duis/mattis.png,13.3656061,123.3810275,-1
745,Johnson-O'Connell,Philippines,28577 Moulton Park,http://github.io/leo/odio.jpg,8.3796569,123.4261608,-1
746,"Mitchell, Labadie and Conroy",Bosnia and Herzegovina,394 Stuart Plaza,http://home.pl/at/velit/eu/est/congue/elementum/in.json,43.8227415,18.2051201,0
747,Auer-Kutch,Japan,6957 Dorton Court,https://auda.org.au/nunc/nisl.js,31.2840967,130.3267278,-1
748,"Hickle, Feil and Halvorson",Czech Republic,9 Nevada Lane,http://ameblo.jp/quis.json,49.6354683,16.9953098,1
749,Heaney Inc,Poland,8 Meadow Ridge Center,https://blogger.com/ac/nulla/sed/vel/enim/sit.xml,50.7577772,22.1021741,-1
750,"Stroman, Lueilwitz and Morissette",Philippines,79 Montana Way,http://state.gov/mi/integer/ac/neque/duis/bibendum.xml,7.2333331,124.25,1
751,"Schulist, Rohan and Beatty",Indonesia,6 Karstens Street,https://bbb.org/id/luctus.png,-6.7347875,111.4648515,0
752,Goodwin Inc,Czech Republic,8006 Bobwhite Trail,http://uol.com.br/vulputate/ut/ultrices/vel/augue.xml,50.9603536,14.3596743,0
753,Schaden-Reichel,Australia,45 Fulton Trail,http://dion.ne.jp/integer/aliquet/massa/id/lobortis/convallis.png,-42.8821377,147.3271949,-1
754,"Murphy, Kshlerin and Powlowski",Argentina,6026 Comanche Center,http://slashdot.org/sed/ante/vivamus/tortor.jsp,-34.6558079,-58.3734773,-1
755,Stoltenberg Group,Russia,85851 Kennedy Way,http://cnn.com/odio/in/hac/habitasse.html,56.7478077,37.520581,0
756,"White, Shanahan and Maggio",China,46040 Hansons Way,http://earthlink.net/sociis/natoque/penatibus.js,36.588392,115.891646,0
757,Walker-Bruen,Thailand,2 Lerdahl Center,http://ameblo.jp/sapien/dignissim/vestibulum/vestibulum.js,17.9053046,103.4974258,-1
758,"Kreiger, Schinner and Dicki",Greece,4614 Fordem Way,https://vk.com/amet/justo/morbi/ut/odio.png,35.3255514,25.2773184,0
759,"Friesen, MacGyver and Abernathy",Chile,56 Cody Junction,https://alexa.com/ligula.json,-33.6060255,-70.8781837,0
760,"Satterfield, Prosacco and Kuhn",Pakistan,8311 Holy Cross Crossing,http://unblog.fr/ultrices/posuere/cubilia/curae/duis.html,30.7879384,72.7289812,-1
761,"Dooley, Macejkovic and Hirthe",Ukraine,06055 Rieder Point,https://mlb.com/non.json,48.6967162,26.5825364,1
762,McGlynn LLC,Indonesia,3241 Redwing Circle,https://marketwatch.com/rhoncus/dui/vel/sem.html,-6.9871199,107.8487279,0
763,Bernhard-Bruen,Philippines,06378 Old Gate Hill,https://mac.com/justo.html,10.3834377,124.9779153,1
764,Lang Inc,Serbia,36 Dawn Street,http://engadget.com/risus/auctor/sed/tristique/in/tempus/sit.png,43.5409901,21.7183695,0
765,Emmerich-Stark,Poland,4530 Florence Drive,https://sbwire.com/sit/amet/consectetuer/adipiscing.js,53.4174421,18.2282315,-1
766,Hoeger Group,China,08 Heath Center,http://webeden.co.uk/faucibus/orci/luctus/et/ultrices/posuere.js,23.027474,113.082487,-1
767,"Boyer, Steuber and Runolfsson",China,02819 Kinsman Pass,http://icio.us/congue/eget/semper/rutrum/nulla/nunc/purus.aspx,29.273839,120.81584,-1
768,Batz Inc,China,5726 Northfield Place,http://pagesperso-orange.fr/ultrices/enim.js,23.701262,117.430061,-1
769,Lubowitz Inc,Indonesia,8939 Spenser Crossing,http://washingtonpost.com/ipsum/ac/tellus.xml,-6.9796136,110.4269535,-1
770,Walter-Bruen,Poland,070 Mosinee Way,https://cdbaby.com/mollis/molestie/lorem.png,53.0662784,19.2876039,0
771,Eichmann and Sons,Madagascar,850 Hallows Pass,https://ovh.net/venenatis/non/sodales.png,-23.3505295,47.5914122,-1
772,Bruen and Sons,Russia,13 Reinke Plaza,https://paypal.com/natoque/penatibus/et/magnis/dis/parturient.png,64.00189,44.44513,-1
773,"Heidenreich, Baumbach and Bradtke",Indonesia,65 Kings Crossing,http://businessinsider.com/orci.xml,-6.183459,106.7647475,0
774,Lebsack Group,Venezuela,86 Bluestem Place,http://imageshack.us/erat/fermentum/justo/nec/condimentum/neque.aspx,7.6128972,-66.1474752,1
775,"Kautzer, Sanford and Champlin",Czech Republic,625 Summer Ridge Park,https://foxnews.com/id.png,49.0648694,13.6889288,-1
776,Padberg-Dare,Russia,87098 Reinke Plaza,http://wisc.edu/purus.jsp,60.3435461,59.9882605,1
777,Bogisich-Kiehn,Japan,2 Onsgard Plaza,http://themeforest.net/ut/suscipit.aspx,34.8218609,134.9545157,1
778,Walsh-Baumbach,Albania,857 Union Crossing,http://flavors.me/nulla/integer/pede/justo/lacinia.json,42.2609633,19.5359821,1
779,"Quigley, Kerluke and Heathcote",Thailand,11789 Lillian Trail,https://vistaprint.com/turpis/sed.png,14.6014909,103.0933171,0
780,Bernhard-Ullrich,Paraguay,0 Nova Plaza,https://merriam-webster.com/vitae/nisl.js,-25.4302418,-55.2590707,-1
781,Connelly-Hermann,Vietnam,0 Colorado Court,https://usa.gov/fermentum/donec/ut.aspx,10.5308066,105.1609838,0
782,Fritsch Group,Indonesia,336 Kennedy Court,http://nifty.com/sed/magna/at/nunc/commodo.jpg,-8.5305384,120.5766976,0
783,Welch-Green,Japan,85 Vermont Point,https://constantcontact.com/tincidunt/eu/felis.jpg,36.0486399,140.2051504,1
784,Raynor LLC,Macedonia,7 Carey Crossing,http://163.com/habitasse/platea/dictumst/maecenas/ut/massa.aspx,41.88306,21.1275,-1
785,Simonis Group,China,215 Graceland Street,http://histats.com/ut/ultrices.aspx,23.199183,113.256439,0
786,"MacGyver, Eichmann and Braun",Indonesia,31969 Hoepker Junction,http://domainmarket.com/et/ultrices/posuere.html,-6.9909214,113.8659097,-1
787,Lockman-Altenwerth,Uganda,768 Farmco Hill,http://dailymail.co.uk/lacus/at/turpis/donec/posuere/metus/vitae.aspx,0.9400761,30.8125638,1
788,Yost-Grimes,Russia,180 Marquette Crossing,https://mediafire.com/justo/eu/massa/donec/dapibus/duis/at.aspx,55.7382444,37.6148,0
789,McDermott-Schuster,Indonesia,73470 Cascade Crossing,https://samsung.com/consectetuer/eget/rutrum/at.jpg,-7.9454654,113.0845936,-1
790,Hilpert-Simonis,Indonesia,79315 Jenna Point,http://hexun.com/a/feugiat/et/eros/vestibulum.jpg,-7.0587981,108.6620986,-1
791,Dooley LLC,Macedonia,5143 Jenna Trail,https://accuweather.com/habitasse/platea/dictumst/etiam/faucibus.png,41.536057,20.696064,0
792,Fadel Group,Czech Republic,4073 Clyde Gallagher Crossing,http://friendfeed.com/venenatis.jpg,49.4744879,15.8691305,0
793,Dicki-Trantow,China,270 Farwell Park,https://prweb.com/dui/nec.js,26.602423,110.994507,0
794,Cronin Group,Brazil,3317 Ludington Crossing,http://fda.gov/vehicula/consequat.xml,-5.0662102,-38.3587174,-1
795,Turcotte-Turner,Greece,56881 Packers Court,http://harvard.edu/eu/sapien/cursus/vestibulum/proin/eu.xml,38.582529,21.4467686,-1
796,"Walter, Nienow and Botsford",Russia,236 New Castle Hill,http://yandex.ru/at/velit/vivamus/vel/nulla/eget.xml,52.6656693,36.3693158,0
797,"Harvey, Schumm and Lind",Russia,09319 Carioca Pass,http://prnewswire.com/non/velit/nec.html,59.9000274,150.8632131,-1
798,Conroy-Greenfelder,Canada,1953 Scoville Court,https://tripod.com/dui/vel.html,49.2815819,-122.7535881,-1
799,Kunze-Hamill,Tanzania,2505 Washington Alley,https://google.com.hk/magnis/dis/parturient/montes/nascetur/ridiculus/mus.jpg,-8.2981893,31.5227266,-1
800,Cummerata and Sons,China,7 Dahle Avenue,http://joomla.org/aliquam/erat/volutpat.xml,29.755129,111.370418,-1
801,Abbott Inc,Bulgaria,4 Johnson Parkway,https://ihg.com/orci/eget/orci/vehicula/condimentum.xml,42.8494142,27.7900409,1
802,Klein-Borer,Peru,91 Carpenter Way,http://jiathis.com/ut/erat/id/mauris.js,-17.3753589,-70.1338535,-1
803,Pagac-O'Kon,Russia,24 Old Shore Terrace,https://independent.co.uk/justo/in/hac/habitasse/platea.js,53.1991153,50.1031834,0
804,Volkman-Larkin,Peru,4402 Orin Pass,http://typepad.com/primis/in/faucibus.js,-6.5337152,-76.4943827,0
805,Schmeler-Thiel,Czech Republic,7 Warner Place,http://stumbleupon.com/vulputate/vitae/nisl/aenean/lectus/pellentesque.json,49.871007,17.8758236,-1
806,"Adams, Cartwright and Champlin",Portugal,98457 Scoville Way,https://sourceforge.net/consequat/in/consequat.json,37.800886,-25.6125131,1
807,"Ruecker, Kuphal and Von",Luxembourg,663 Dixon Park,https://samsung.com/nibh/fusce/lacus/purus.jsp,49.7523363,6.3655038,-1
808,Deckow Inc,Indonesia,54 Bobwhite Avenue,http://china.com.cn/interdum/venenatis/turpis/enim/blandit.jpg,-2.4421225,115.188916,1
809,"Kutch, Senger and Walsh",Philippines,26030 Melvin Point,http://1688.com/eget/eleifend/luctus.html,8.2101114,124.8662656,1
810,Reynolds LLC,Poland,98 Grover Trail,http://clickbank.net/quisque/ut.xml,50.1644211,20.7278613,0
811,Gleason-O'Reilly,Poland,82885 Rockefeller Center,http://freewebs.com/adipiscing.json,50.7734719,18.9680842,0
812,"Klocko, Fisher and Emard",Russia,94 Bluestem Way,https://mozilla.com/sagittis/dui/vel/nisl/duis/ac/nibh.aspx,43.262695,45.6506664,-1
813,Anderson-Kozey,Brazil,19428 Ruskin Street,http://mapy.cz/aliquam.json,-11.6723638,-61.1984811,1
814,"Becker, Kerluke and Auer",Portugal,31 Emmet Terrace,http://printfriendly.com/morbi/odio.png,38.739431,-27.079718,-1
815,Hagenes Group,Thailand,56599 Tony Center,https://shutterfly.com/a/libero/nam/dui/proin/leo.html,14.0654264,100.6473542,1
816,"Adams, Hills and McCullough",Germany,6 Killdeer Way,http://springer.com/tellus/semper.xml,51.349366,9.7730968,-1
817,Rowe-Wolff,Indonesia,1884 Gulseth Center,https://wunderground.com/quam/pharetra/magna/ac/consequat.xml,-8.1844859,113.6680747,0
818,Windler-Windler,China,24 Monica Place,http://upenn.edu/fusce/consequat/nulla/nisl/nunc.jsp,25.784135,104.953062,-1
819,Beahan Inc,China,10 Stone Corner Point,http://ftc.gov/quam.json,32.655325,103.604698,1
820,Schmitt and Sons,Poland,8464 Petterle Terrace,https://jigsy.com/vestibulum.xml,52.20775,21.077623,1
821,"Eichmann, Dibbert and Gorczany",Uganda,29255 Russell Trail,https://last.fm/posuere/cubilia/curae.xml,0.3144046,32.9888319,1
822,Zieme Inc,Philippines,990 Truax Circle,http://nbcnews.com/sapien.jpg,15.399082,119.9327646,1
823,Terry LLC,Nigeria,36 Dixon Way,https://house.gov/convallis/nunc.xml,10.2227095,12.051835,1
824,Anderson-Will,Argentina,050 Hayes Drive,https://imdb.com/posuere/nonummy/integer/non/velit/donec.xml,-32.9867567,-60.644128,1
825,Schimmel-Willms,China,2 Waubesa Park,https://sakura.ne.jp/ipsum.json,32.240853,120.2326771,0
826,Hagenes and Sons,Argentina,38 Dorton Circle,https://bravesites.com/tempus/vivamus/in/felis/eu.png,-23.144255,-64.325272,-1
827,"Prohaska, Fritsch and Terry",Czech Republic,5 Hoepker Center,http://tiny.cc/viverra/diam/vitae/quam/suspendisse.html,48.9580793,16.9851229,1
828,Sawayn LLC,Vietnam,40573 Melrose Terrace,https://weebly.com/lectus/aliquam/sit/amet/diam.jsp,13.8565034,109.1642208,1
829,"Dach, Terry and Towne",Sweden,374 Manley Street,https://adobe.com/duis/bibendum/morbi/non/quam/nec.html,58.5372113,15.0131752,1
830,"Lesch, Orn and Champlin",Peru,12 Gina Trail,http://auda.org.au/sit/amet.jsp,-9.8535874,-76.631796,-1
831,Pollich-Gottlieb,Philippines,2228 Lukken Pass,https://upenn.edu/posuere/cubilia/curae/nulla/dapibus.xml,14.4400324,121.0299296,0
832,Hills Group,Peru,557 Corry Junction,http://blogtalkradio.com/amet/eleifend/pede/libero/quis/orci.xml,-14.1007487,-71.4306785,1
833,Upton and Sons,Thailand,7 Chinook Pass,http://sakura.ne.jp/vestibulum.xml,16.269546,103.035694,1
834,Bernhard-Connelly,Ireland,9 Jenna Alley,http://scientificamerican.com/vivamus.jpg,53.377533,-6.2633149,1
835,Klein Group,France,4571 La Follette Pass,http://biblegateway.com/pellentesque/quisque/porta/volutpat/erat/quisque.png,43.1237608,2.317187,-1
836,Osinski-Bruen,Venezuela,6556 Sycamore Junction,http://ustream.tv/semper/interdum/mauris/ullamcorper/purus.xml,8.4362867,-69.9959762,-1
837,Feeney and Sons,Oman,55135 Oriole Crossing,http://webnode.com/et/ultrices/posuere/cubilia.jsp,19.955811,56.268059,1
838,"Klocko, Considine and Padberg",China,55 Straubel Center,http://admin.ch/ultricies/eu/nibh/quisque/id/justo/sit.json,39.7601611,116.3169416,-1
839,Renner-Lemke,China,7 Texas Drive,http://weibo.com/sed/interdum/venenatis.xml,24.64995,116.156645,1
840,Sauer Group,Russia,0985 Moose Crossing,https://woothemes.com/eget/eleifend/luctus/ultricies/eu/nibh.jsp,56.0127743,37.2229806,-1
841,"Rodriguez, Cummings and Orn",Brazil,83 5th Place,http://vinaora.com/sit.jsp,-12.7414031,-60.1304566,-1
842,Zemlak-McLaughlin,Brazil,32989 Cascade Alley,https://godaddy.com/congue.aspx,-11.2750411,-37.7879303,-1
843,Waters-Bartoletti,Ecuador,72139 Pepper Wood Hill,http://census.gov/varius/nulla.aspx,-0.8406658,-80.1596041,1
844,Murphy Inc,Indonesia,500 Ruskin Center,https://weather.com/hac/habitasse/platea/dictumst/maecenas/ut/massa.html,-6.2948133,106.7205154,-1
845,"Glover, Schaefer and Wisozk",Sweden,56 Clove Street,http://google.it/id.png,59.2794072,18.0556772,-1
846,Flatley-Lowe,Indonesia,7 Dakota Terrace,https://trellian.com/blandit/nam/nulla/integer.aspx,-7.3055182,110.4947314,-1
847,"Kovacek, Goyette and Cummerata",Argentina,54627 Loomis Alley,http://ebay.com/lectus/aliquam/sit/amet/diam.json,-38.956431,-68.23127,0
848,Thompson-Dach,Ghana,0869 Namekagon Circle,https://stanford.edu/in/faucibus.js,5.5298168,-0.705779,0
849,Cartwright-Langosh,Saudi Arabia,389 Roxbury Point,http://ebay.co.uk/ac/est/lacinia/nisi/venenatis.html,27.9424688,48.6614478,1
850,Hegmann LLC,Iran,8704 Kim Alley,https://desdev.cn/ipsum.aspx,30.8908344,61.680106,1
851,McLaughlin Group,Greece,8840 Meadow Ridge Trail,https://indiegogo.com/pulvinar.aspx,40.7655701,22.4916502,1
852,"Mosciski, Lang and Reilly",Netherlands,2 Hoard Alley,https://is.gd/luctus/et/ultrices.png,52.3738284,4.8886159,1
853,"Rice, Aufderhar and Toy",China,6091 Summerview Avenue,https://whitehouse.gov/non/lectus/aliquam.xml,31.7238883,119.9481515,0
854,Wiza-Rodriguez,Nigeria,8 Florence Alley,https://thetimes.co.uk/rhoncus/mauris/enim/leo/rhoncus/sed/vestibulum.png,6.7518524,4.8779969,1
855,Gottlieb-Stoltenberg,Gambia,0 Daystar Center,https://dropbox.com/tempus/sit/amet/sem/fusce.xml,13.5712781,-15.3262905,-1
856,Morar-Botsford,China,6915 Montana Avenue,http://last.fm/integer.aspx,23.9563274,113.1916737,-1
857,"Kreiger, Lehner and Greenholt",Indonesia,041 Shopko Trail,http://thetimes.co.uk/dapibus.jsp,-8.5261,121.9715,-1
858,Boyle Group,Russia,4 Kedzie Drive,http://wix.com/leo/maecenas/pulvinar/lobortis.xml,46.8467747,40.5510554,1
859,"Gottlieb, Rempel and Hand",United Kingdom,290 Dennis Junction,http://com.com/at/turpis/donec/posuere/metus/vitae/ipsum.jsp,52.753093,-2.941678,0
860,Koch-Trantow,Ukraine,2 Forest Dale Crossing,https://cargocollective.com/dictumst/maecenas.json,48.7192002,32.6770961,1
861,Kunze-Runte,Poland,82520 Oneill Circle,http://bbb.org/auctor.jpg,52.99166,17.4884299,0
862,Ward-Smitham,Bahrain,243 Fremont Court,https://vimeo.com/in/imperdiet/et/commodo/vulputate/justo.json,26.2198633,50.5329678,0
863,Block-Nikolaus,Indonesia,2 Redwing Place,http://google.co.jp/quam/sapien/varius/ut/blandit.html,-6.8353111,107.9561464,0
864,Bechtelar-Dietrich,Philippines,30186 Oriole Park,https://facebook.com/nec/dui/luctus/rutrum/nulla/tellus/in.html,14.5716986,121.026941,0
865,Nolan and Sons,Russia,088 6th Crossing,https://bandcamp.com/donec.jsp,51.8478427,42.4697909,0
866,"Durgan, Luettgen and Wunsch",Canada,3 Hermina Drive,https://narod.ru/erat/eros/viverra/eget.jsp,49.7859606,-112.1496533,-1
867,"Bayer, Grimes and Swaniawski",Turkey,64 Quincy Center,http://issuu.com/ullamcorper/purus/sit.html,38.30647,28.266799,-1
868,Walker-Gibson,Argentina,5 Redwing Junction,https://unicef.org/augue/quam.xml,-31.4325479,-64.1305924,1
869,Jenkins-Swift,Nepal,91 Mendota Plaza,http://hp.com/elementum/ligula/vehicula.json,26.7297141,86.4794359,1
870,"Mills, Hudson and Lowe",South Sudan,941 Roth Road,http://github.io/quis/tortor/id/nulla/ultrices/aliquet/maecenas.xml,6.2132663,31.5655424,1
871,Gleichner and Sons,China,940 Dahle Terrace,https://twitpic.com/lobortis/ligula/sit/amet/eleifend.png,30.940195,118.75868,-1
872,Maggio-Herzog,Indonesia,70420 Blue Bill Park Center,http://wufoo.com/sit/amet/eros.xml,-5.7301845,105.6837789,-1
873,Abshire Group,Poland,50 Bunker Hill Terrace,https://symantec.com/est/risus/auctor/sed/tristique/in.jpg,52.0609041,17.239347,1
874,Pollich-Schmeler,China,0108 Old Shore Way,https://miitbeian.gov.cn/suscipit/nulla/elit.jpg,23.404165,113.220218,-1
875,Prosacco-Green,Greece,39 Messerschmidt Parkway,http://biblegateway.com/congue/risus/semper/porta/volutpat.xml,39.4305733,21.6627892,1
876,"Emmerich, Graham and Sanford",Portugal,984 Eggendart Street,http://cnet.com/leo/maecenas/pulvinar.jsp,38.8905198,-7.5457633,-1
877,"Torphy, Dickens and McClure",France,3731 Petterle Parkway,https://webnode.com/morbi/ut/odio.jsp,47.6632745,1.206057,1
878,Turner Group,Colombia,68682 Straubel Street,https://wikia.com/lacus/at.json,4.974252,-74.291386,1
879,Kulas-Trantow,China,79456 Gina Park,http://admin.ch/ut/nulla/sed/accumsan/felis/ut/at.js,30.807667,108.408661,-1
880,"Bode, Wyman and Lindgren",Macedonia,9841 Hermina Junction,https://mit.edu/urna/ut/tellus/nulla/ut/erat.aspx,41.81758,22.23529,0
881,Schaden Group,Colombia,689 Mendota Plaza,http://google.com.au/consequat/in/consequat/ut/nulla.xml,-0.2142002,-78.4989722,-1
882,Paucek-Gerhold,Georgia,22387 Sycamore Avenue,http://boston.com/nibh/in/hac/habitasse/platea.xml,41.631154,42.3915567,-1
883,Stoltenberg-West,Thailand,14 Thompson Avenue,https://slashdot.org/tristique/fusce/congue/diam.xml,14.7147473,100.4358552,1
884,Fisher-Walter,Indonesia,4 Texas Way,https://disqus.com/arcu/adipiscing/molestie/hendrerit/at/vulputate/vitae.jpg,0.2561666,102.1175404,-1
885,Beier-Legros,Brazil,58 7th Point,https://blogspot.com/etiam/faucibus/cursus.aspx,-11.5576676,-39.2791011,-1
886,Hintz-Wuckert,Indonesia,36 Lakewood Gardens Place,http://wp.com/neque/aenean/auctor/gravida/sem.png,-8.8814738,117.3733989,1
887,Bayer LLC,Philippines,2649 Pennsylvania Point,https://mac.com/sit/amet/diam/in/magna/bibendum/imperdiet.html,7.8400507,122.4823401,-1
888,Fisher LLC,Czech Republic,1513 Dryden Park,https://auda.org.au/convallis/nulla/neque/libero/convallis.png,49.0226636,17.7792323,-1
889,Swaniawski LLC,Canada,70 La Follette Plaza,https://github.io/luctus/et/ultrices/posuere.jpg,46.0466966,-71.0768076,-1
890,Hackett and Sons,Indonesia,29503 Jenifer Street,https://google.es/tellus/in/sagittis/dui.js,-8.3162866,113.4686802,0
891,"Gerhold, Wyman and Padberg",Argentina,1 Esch Place,https://creativecommons.org/diam/vitae/quam.xml,-34.6637851,-58.5017947,-1
892,Pollich and Sons,Japan,0 Londonderry Parkway,http://samsung.com/ultrices.js,35.0346917,137.0871404,0
893,Nolan Inc,Indonesia,51184 Summer Ridge Street,https://census.gov/turpis/sed/ante/vivamus/tortor/duis.js,5.3847763,95.9602371,-1
894,"Bashirian, Hane and Wuckert",Cameroon,556 Ronald Regan Place,https://cisco.com/ac/neque/duis/bibendum/morbi/non.aspx,4.6333268,9.4450439,0
895,Luettgen-Cole,Poland,19 Charing Cross Terrace,http://reference.com/at.xml,49.8958515,18.8188681,0
896,"Weissnat, Bode and Gibson",Bangladesh,93 Lerdahl Plaza,https://google.co.uk/turpis.js,23.8697964,90.4219444,-1
897,Cormier-Reichert,Indonesia,2 Caliangt Junction,http://ezinearticles.com/lacinia/nisi/venenatis/tristique.html,-8.1611036,113.6770012,0
898,Muller LLC,China,5 Nova Crossing,http://google.it/primis.jsp,29.483809,90.266692,0
899,Kozey Group,Philippines,6 Hazelcrest Trail,https://livejournal.com/blandit/nam/nulla/integer/pede/justo.png,13.9062958,124.3040904,-1
900,Torphy Inc,Indonesia,9333 Birchwood Avenue,https://histats.com/lorem/vitae.jpg,-5.3383734,119.3831026,0
901,Graham LLC,Philippines,61153 Farragut Park,http://gmpg.org/ipsum/integer/a/nibh/in.html,10.149672,123.279336,1
902,Schulist LLC,China,06144 Buena Vista Pass,http://ucoz.com/ac/leo/pellentesque/ultrices/mattis/odio.html,39.982718,117.078294,1
903,Hauck-Monahan,China,827 Ridgeview Plaza,http://dailymail.co.uk/lacinia/nisi/venenatis/tristique/fusce/congue/diam.json,24.348178,113.151358,-1
904,Bogisich-Sporer,Philippines,66015 Blue Bill Park Pass,https://japanpost.jp/hac/habitasse/platea.json,10.2515803,124.798851,-1
905,Hermann-Howe,Philippines,64 East Center,https://plala.or.jp/integer/ac/leo/pellentesque/ultrices/mattis/odio.js,11.536819,122.489398,1
906,Runolfsdottir-Grady,China,3962 Algoma Place,https://twitpic.com/consequat/morbi/a/ipsum/integer.aspx,36.284107,100.620031,0
907,Kilback Inc,Brazil,1 Scott Pass,https://kickstarter.com/pretium/quis/lectus/suspendisse.jpg,-18.2417866,-43.6035055,-1
908,Zieme LLC,Sweden,68 Donald Park,http://economist.com/et/ultrices/posuere.xml,59.3409629,18.0669843,0
909,Bins LLC,Philippines,97832 Division Center,http://mozilla.com/consequat/lectus/in/est/risus/auctor/sed.xml,14.6511524,121.0314508,1
910,Gorczany-Beahan,China,973 Schurz Circle,https://fastcompany.com/ipsum.jsp,21.547821,107.971826,1
911,Walsh-Rosenbaum,China,553 Butterfield Street,https://hp.com/quisque/id.xml,40.6238989,122.5200228,-1
912,Wunsch-Dach,China,61 Ridgeview Terrace,https://opera.com/ut/nulla.js,39.974179,116.293727,1
913,"Wunsch, Russel and Harvey",Sweden,61158 Knutson Park,https://gmpg.org/eget/eleifend/luctus/ultricies.png,58.4922889,15.5029738,0
914,Jacobson-Walsh,Greece,7 Weeping Birch Place,http://microsoft.com/viverra/eget/congue/eget/semper.jpg,40.0480392,23.4134501,-1
915,Mueller-Labadie,China,5705 Waubesa Terrace,http://1688.com/posuere/cubilia/curae/mauris/viverra.json,28.6909216,113.5978392,-1
916,"Runolfsdottir, Dickinson and Lebsack",Indonesia,07330 Mccormick Court,http://t-online.de/turpis/integer/aliquet/massa/id/lobortis.xml,-7.2679917,112.6626281,0
917,"Klein, Baumbach and Paucek",Indonesia,45147 Swallow Park,https://jigsy.com/nunc/commodo/placerat/praesent.png,-8.0993,111.9161,0
918,Raynor-Ryan,China,59 Boyd Plaza,https://webmd.com/amet/nulla/quisque/arcu/libero/rutrum/ac.json,26.888665,112.616612,-1
919,McDermott LLC,Sweden,6 Parkside Junction,https://chron.com/pellentesque/ultrices/phasellus/id/sapien/in.xml,59.4015532,18.3427724,0
920,Kshlerin-Reinger,China,690 Hollow Ridge Place,https://whitehouse.gov/nunc/viverra/dapibus.js,23.112257,114.415801,-1
921,Baumbach LLC,China,14365 Mccormick Center,https://geocities.jp/sapien/in.json,26.534726,119.326773,1
922,"Will, Gusikowski and Ferry",Latvia,147 Arkansas Point,http://mapy.cz/semper/est/quam.png,56.5930499,25.2431539,-1
923,Wilderman-Breitenberg,Brazil,1 Cascade Hill,https://tripadvisor.com/tristique/est/et/tempus/semper/est/quam.png,-21.1379949,-47.990137,-1
924,Yundt-Fritsch,Brazil,66908 Mockingbird Avenue,http://tripod.com/id/turpis/integer/aliquet/massa/id/lobortis.jpg,-8.3748772,-35.4551341,0
925,Auer Inc,Brazil,65 Eastwood Trail,http://delicious.com/nulla/tellus.png,-7.4157126,-38.0843008,0
926,Leuschke LLC,United States,31 Main Hill,http://paginegialle.it/rutrum/rutrum/neque/aenean.png,37.8336281,-122.2029832,1
927,Anderson-Schaefer,Poland,93109 Glendale Avenue,https://pen.io/ipsum/primis/in/faucibus/orci/luctus.json,49.8405384,19.5082319,-1
928,Blanda Group,China,16 Meadow Vale Road,https://free.fr/quis/justo/maecenas/rhoncus/aliquam/lacus.aspx,26.079079,113.950153,-1
929,O'Kon-Kunze,Afghanistan,6 Northland Drive,http://artisteer.com/quam/a.xml,32.7778898,61.6567273,0
930,Denesik Group,China,0861 Meadow Ridge Court,http://t.co/turpis.aspx,35.87616,102.801062,0
931,"Doyle, Botsford and Nikolaus",Ukraine,994 Tennessee Road,http://creativecommons.org/luctus/et/ultrices/posuere/cubilia/curae/mauris.xml,46.3601437,32.3522621,-1
932,"Bartoletti, Kub and Armstrong",China,1 Dixon Parkway,https://oaic.gov.au/vestibulum/aliquet/ultrices/erat/tortor/sollicitudin/mi.aspx,22.676245,113.418215,1
933,"Conroy, Prosacco and Kling",Puerto Rico,3778 Bluejay Crossing,https://ted.com/justo/maecenas/rhoncus/aliquam/lacus.aspx,18.3822991,-66.1221928,1
934,Adams LLC,China,7635 Duke Plaza,https://wisc.edu/lobortis/convallis/tortor.html,28.520684,112.140063,0
935,Boyer-King,Czech Republic,36586 Londonderry Alley,http://cnet.com/parturient/montes.aspx,49.12249,15.8681689,0
936,Gottlieb-Wilderman,Indonesia,3 Melrose Pass,https://cisco.com/purus/sit.jpg,-8.781054,115.165807,1
937,Gibson and Sons,Russia,7 Sutteridge Center,https://oracle.com/amet/cursus/id/turpis/integer/aliquet/massa.html,55.619557,37.754824,-1
938,Schiller-Herzog,Indonesia,44 Hollow Ridge Parkway,https://marketwatch.com/nec/nisi/volutpat/eleifend.png,-6.5961314,106.8093807,1
939,"Kunde, Robel and Osinski",Luxembourg,781 Superior Parkway,http://cocolog-nifty.com/ipsum/primis/in/faucibus/orci/luctus/et.json,49.9672504,5.8900588,0
940,Cremin-Schuppe,China,07 Mendota Street,http://alibaba.com/fringilla/rhoncus/mauris/enim/leo/rhoncus.html,51.79909,124.537673,0
941,"Reinger, Sporer and Hettinger",Indonesia,315 Meadow Vale Crossing,https://about.com/odio/cras/mi/pede.png,-6.8575149,107.6422488,1
942,"Glover, Kuphal and Weissnat",Brazil,35 Debra Pass,https://discovery.com/ipsum/primis/in/faucibus/orci/luctus/et.png,-4.5848377,-42.8572386,1
943,Nicolas and Sons,Greece,7 Texas Alley,http://163.com/et.jpg,37.0507794,22.0083727,-1
944,Kunde Group,Philippines,31 Fieldstone Parkway,https://eventbrite.com/eu/magna/vulputate/luctus.js,7.160227,125.05806,0
945,Smith-Koelpin,France,8 Calypso Park,https://linkedin.com/ultrices/erat.jsp,48.732568,2.2889821,0
946,Lindgren and Sons,China,0624 Namekagon Plaza,http://diigo.com/in.jsp,36.878124,102.149548,0
947,Cassin LLC,Sweden,62 Browning Hill,https://t.co/luctus/et/ultrices/posuere.jsp,56.9940675,13.209918,0
948,Hand-Blick,China,0 John Wall Street,http://de.vu/mattis/pulvinar/nulla/pede/ullamcorper/augue.json,45.273298,127.504166,1
949,"Sawayn, Kozey and Hahn",Hungary,48122 Katie Plaza,http://amazon.com/in.html,47.5202786,17.5142121,-1
950,"Mueller, Gerlach and Wisoky",Russia,83151 Graedel Lane,https://alexa.com/in/hac/habitasse.png,51.6269724,41.1342102,1
951,Baumbach-Daniel,Croatia,3625 Lawn Terrace,https://census.gov/volutpat/in/congue/etiam/justo.json,44.8278003,14.7318165,-1
952,Fahey LLC,Montenegro,1 Melby Way,https://cornell.edu/venenatis/lacinia/aenean/sit/amet/justo/morbi.jpg,42.0912106,19.089904,-1
953,Feil Group,Belgium,29110 Mockingbird Parkway,http://bandcamp.com/amet/diam/in/magna/bibendum.js,50.585206,3.3300918,0
954,Douglas Inc,Poland,1610 Larry Terrace,http://tamu.edu/semper/interdum/mauris/ullamcorper.png,49.86686,19.67676,-1
955,Altenwerth-Howell,Indonesia,39001 Oriole Crossing,http://bandcamp.com/auctor/sed/tristique/in/tempus.html,-7.1072394,109.011884,0
956,Schmidt-Fritsch,Colombia,4129 Northport Trail,http://ft.com/ullamcorper/purus/sit/amet/nulla.aspx,10.789771,-74.755201,1
957,DuBuque and Sons,China,676 Ruskin Trail,https://ft.com/pellentesque.json,24.77848,110.496593,-1
958,Howell-Krajcik,Costa Rica,92 Lien Park,http://instagram.com/in/quam/fringilla/rhoncus/mauris/enim.jsp,9.477773,-84.2662901,1
959,"Koss, Hudson and O'Conner",Russia,50048 Hanover Point,http://goo.gl/semper.js,56.7952392,105.8855714,-1
960,Dicki-Wunsch,Poland,676 Norway Maple Place,http://blogspot.com/non/pretium/quis/lectus/suspendisse.jsp,51.7118861,22.9024512,0
961,Thiel-Graham,Portugal,96 Hudson Way,https://columbia.edu/integer/aliquet/massa/id/lobortis.jpg,40.0604197,-8.6218634,1
962,Harber and Sons,Vietnam,55711 Mcguire Alley,https://bluehost.com/sit/amet/turpis/elementum/ligula/vehicula.json,10.6340856,106.947666,-1
963,Hammes Group,Madagascar,0339 Anthes Hill,http://linkedin.com/mauris/laoreet/ut.xml,-18.8791902,47.5079055,-1
964,"Farrell, Hills and Beier",Portugal,14 Sommers Hill,https://cnn.com/feugiat/non/pretium.aspx,38.3884463,-8.1572713,1
965,Lang-Bins,China,34 Northview Parkway,http://ed.gov/morbi/non/lectus/aliquam.png,36.389401,120.44716,0
966,Pacocha-Howe,Indonesia,4652 Bartelt Plaza,https://godaddy.com/cras/in/purus/eu/magna/vulputate.json,-8.7195657,122.3589285,-1
967,Franecki Group,Japan,2 Everett Drive,http://theglobeandmail.com/metus/sapien/ut/nunc/vestibulum/ante.aspx,34.0055653,133.5697428,0
968,Dietrich LLC,Colombia,77615 Linden Court,https://smugmug.com/dictumst/maecenas/ut/massa.png,3.649442,-76.567956,0
969,"Hahn, Wolff and Halvorson",Egypt,441 Brentwood Drive,http://baidu.com/sagittis/dui.xml,31.4175388,31.8144434,-1
970,"Nienow, Schneider and Rempel",China,952 Bobwhite Junction,http://netlog.com/in/magna/bibendum/imperdiet.jpg,30.439547,119.669425,0
971,Dooley Inc,Argentina,21 Washington Road,http://icq.com/amet/consectetuer/adipiscing/elit/proin/interdum/mauris.js,-27.2000865,-54.9815915,0
972,Kiehn Inc,China,72 Ridge Oak Plaza,https://ed.gov/est/donec/odio.jsp,47.577495,130.828626,0
973,Cremin-Okuneva,China,787 Donald Place,http://sciencedirect.com/suspendisse/potenti/in/eleifend/quam/a/odio.jsp,28.0896014,108.7986202,-1
974,Swaniawski-Bahringer,China,5 Fremont Circle,https://indiegogo.com/elit.html,30.190334,122.689752,-1
975,Kirlin Inc,Indonesia,604 Warrior Alley,http://ovh.net/lectus/vestibulum/quam/sapien/varius/ut/blandit.png,-9.4964,119.2262667,1
976,Friesen-Strosin,China,2 Darwin Way,http://tripod.com/dui/vel/sem.jsp,31.2289489,121.4584218,0
977,Borer-Jenkins,Gambia,9861 Daystar Street,https://nature.com/ultrices/posuere/cubilia.png,13.2375414,-14.1959978,-1
978,"Jerde, Howell and Greenfelder",Hong Kong,309 4th Avenue,http://wired.com/in/sapien.png,22.2100066,114.133531,0
979,Veum-Mann,Brazil,178 Graceland Street,http://huffingtonpost.com/nec/molestie/sed.html,-5.8248093,-46.1594921,0
980,Feil LLC,Sweden,7908 Warbler Center,https://umich.edu/mauris/morbi/non/lectus/aliquam.aspx,58.0498372,11.8515576,-1
981,Hudson Inc,Poland,3346 Lakewood Gardens Hill,http://chicagotribune.com/in/hac/habitasse/platea/dictumst.png,50.2620534,22.4210807,-1
982,"Moen, Fadel and Thiel",Armenia,33400 Burning Wood Court,https://cdc.gov/justo/eu/massa.xml,40.1361855,44.2441818,0
983,Watsica LLC,Nigeria,78 Kenwood Trail,http://walmart.com/pharetra/magna/vestibulum.json,6.7702718,7.4300234,-1
984,"Marvin, Heathcote and Schuster",Vietnam,44332 Warrior Trail,http://nhs.uk/vitae/ipsum.aspx,22.3032923,105.876004,-1
985,Wunsch-Schinner,China,29797 Sugar Court,http://hao123.com/pulvinar/lobortis/est/phasellus/sit/amet/erat.png,31.264592,121.585315,-1
986,Gaylord-Shields,China,4748 Lotheville Plaza,http://reference.com/tellus/nisi/eu/orci/mauris.js,33.959385,119.563316,-1
987,"Gorczany, Heathcote and Pollich",Poland,5 Packers Pass,https://google.nl/vehicula/consequat/morbi/a/ipsum/integer.js,52.0424689,21.3991045,1
988,Anderson-O'Connell,China,5 Buell Trail,https://yelp.com/mus/etiam/vel/augue/vestibulum.html,25.152278,104.241546,-1
989,"Conn, Hackett and Brown",Philippines,4394 Drewry Park,https://hibu.com/in/quam/fringilla.json,5.093026,119.808662,1
990,Zulauf-Nolan,China,493 Manitowish Pass,http://uiuc.edu/mi/integer/ac/neque/duis.js,23.0664459,113.1964636,1
991,Harris and Sons,Russia,735 Waywood Street,http://shop-pro.jp/quisque/ut.xml,58.3971367,56.4158867,1
992,"Senger, McDermott and Daugherty",Namibia,941 Lakewood Circle,https://flickr.com/amet/diam/in/magna.html,-17.6282228,18.6101405,-1
993,"Borer, O'Hara and Nienow",Indonesia,3572 Farwell Drive,https://msn.com/nonummy/maecenas.jsp,-7.2026914,108.1013637,0
994,Marquardt-Kirlin,Philippines,063 Superior Terrace,http://discovery.com/suspendisse/accumsan.jpg,13.9791936,121.7983634,1
995,Morar-Swift,Czech Republic,35272 Hovde Way,http://woothemes.com/mauris/enim/leo/rhoncus/sed/vestibulum.aspx,49.0226636,17.7792323,0
996,Schimmel Group,China,919 Lakewood Trail,http://mayoclinic.com/sem/praesent/id/massa/id/nisl.png,32.9454027,-117.2399868,-1
997,Haag-Crooks,Brazil,8 Hanover Pass,https://etsy.com/nullam/varius/nulla/facilisi/cras.js,-6.3207152,-47.7834888,-1
998,"Conn, Langosh and Paucek",China,6 Namekagon Plaza,http://bizjournals.com/ultrices/phasellus/id/sapien/in.jsp,33.011529,114.022298,-1
999,Weber LLC,Panama,711 Messerschmidt Road,http://delicious.com/ipsum/primis/in/faucibus/orci/luctus.aspx,8.4430125,-82.3777335,-1
1000,Paucek-Kilback,France,370 Larry Circle,http://lulu.com/molestie/nibh/in/lectus/pellentesque/at/nulla.xml,43.5958543,5.1190026,1
